name,address1,address2,address3,borough_name,website,os_addressbase_uprn,borough_code,ward_2018_name,ward_2018_code,longitude,latitude,easting,northing,runtime
Wembley Library,Brent Civic Centre Engineers Way,,,,,,,,,-0.2814509103471971,51.5589132033094,519229.8115887138,185846.76843330555,04/11/2021
Kilburn,Salusbury Road,,,Brent,,202046410.0,E09000005,Queens Park,E05000098,-0.2053763293332811,51.53511482705903,524567.9662526551,183326.92311962732,04/11/2021
Bradmore Green,Bradmore Way,Coulsdon,,Croydon,,200001206439.0,E09000008,Old Coulsdon,E05011474,-0.1239772175451508,51.30756461822491,530860.9645413605,158164.92995614704,04/11/2021
Biggin Hill Memorial Library and Pool,Church Road,Biggin Hill,,Bromley,,10070007971.0,E09000006,Biggin Hill,E05000107,0.0347294516258238,51.31223601174208,541907.9615396087,158978.9297364323,04/11/2021
Coulsdon,Brighton Road,Coulsdon,,Croydon,,100023534265.0,E09000008,Coulsdon Town,E05011466,-0.1386686585240973,51.32000217846126,529801.9648335783,159521.92959059807,04/11/2021
Purley,Banstead Road,Purley,,Croydon,,200001215992.0,E09000008,Purley & Woodcote,E05011476,-0.1186688135808091,51.33914397993314,531140.9644692251,161685.929001303,04/11/2021
Sanderstead,Farm Fields,South Croydon,,Croydon,,200001205396.0,E09000008,Sanderstead,E05011478,-0.0855333875454376,51.34081940061432,533443.96384029,161931.92893322825,04/11/2021
New Addington,Central Parade,Croydon,,Croydon,,100023534498.0,E09000008,New Addington South,E05011471,-0.0163510610347158,51.34092774434316,538261.9625296631,162071.92889801445,04/11/2021
Selsdon,Addington Road,South Croydon,,Croydon,,10014054952.0,E09000008,Selsdon Vale & Forestdale,E05011481,-0.0623478883954002,51.342461480457935,535053.9634036969,162156.92887238384,04/11/2021
Library @ the Phoenix Centre,Mollison Drive,Wallington,,Sutton,,5870113095.0,E09000029,Beddington South,E05000556,-0.1332588469893319,51.35321724607274,530084.9647557805,163224.92858171667,04/11/2021
Wallington Library,Shotfield,Wallington,,Sutton,,5870076858.0,E09000029,Wallington South,E05000570,-0.1507948795061701,51.3578476060317,528850.9650905905,163708.92845009896,04/11/2021
Cheam Library,Church Road,Cheam,,Sutton,,5870018019.0,E09000029,Cheam,E05000560,-0.2166917309211636,51.360101195676606,524256.9663366689,163845.92841352138,04/11/2021
Sutton Central Library,St Nicholas Way,Sutton,,Sutton,,5870113864.0,E09000029,Sutton Central,E05000564,-0.1951546137070101,51.36207338999041,525750.9659322376,164101.92834462988,04/11/2021
Hook and Chessington Library,Hook Road,Chessington,,Kingston upon Thames,,10091803267.0,E09000021,Chessington North and Hook,E05000404,-0.3060341047403558,51.36791922606943,518016.968033959,164567.92821594898,04/11/2021
Library @ Westcroft Centre,Westcroft Road,Carshalton,,Sutton,,5870122731.0,E09000029,Wallington North,E05000569,-0.15811688654644,51.36795395710612,528312.9652386562,164819.92815183848,04/11/2021
Croydon central library,Katharine Street,Croydon,,Croydon,,100022917682.0,E09000008,Fairfield,E05011468,-0.0995104525480366,51.371910542400165,532380.9641287995,165363.9280014406,04/11/2021
Worcester Park Library,Windsor Road,Worcester Park,,Sutton,,5870109125.0,E09000029,Nonsuch,E05000561,-0.2413712460314148,51.37805466953304,522490.9668195736,165800.92788285785,04/11/2021
Shirley,Wickham Road,Croydon,,Croydon,,100022908481.0,E09000008,Shirly South,E05011483,-0.0451319740338749,51.37517898317513,536155.9631051893,165826.92787814775,04/11/2021
West Wickham Library,Glebe Way,West Wickham,,Bromley,,100022897598.0,E09000006,West Wickham,E05000127,-0.0138927950667699,51.37585929263627,538327.9625117598,165960.92783982732,04/11/2021
Library @ The Life Centre,Alcorn Close,Sutton,,Sutton,,5870120544.0,E09000029,Stonecot,E05000563,-0.2018215405565947,51.37890231066054,525240.9660735055,165961.92784000194,04/11/2021
Tolworth Community Library,Tolworth Broadway,Tolworth,,Kingston upon Thames,,128002519.0,E09000021,Alexandra,E05000400,-0.2822544790724609,51.38108014701093,519637.9675951399,166069.92780973046,04/11/2021
Hayes Library,Hayes Street,Bromley,,Bromley,,100022891892.0,E09000006,Hayes and Coney Hall,E05000119,0.018088029995157,51.37739052904857,540548.9619074931,166191.92777719192,04/11/2021
Orpington Library,The Walnuts,Orpington,,Bromley,,10070009943.0,E09000006,Orpington,E05000122,0.1011727237033759,51.37613703808181,546334.9603391006,166214.92777105176,04/11/2021
Old Malden Library,Church Road,Worcester Park,,Kingston upon Thames,,128004320.0,E09000021,Old Malden,E05000410,-0.2548774165774243,51.38376017554562,521535.9670773079,166412.92771742097,04/11/2021
Ashburton,Shirley Road,Croydon,,Croydon,,10014052814.0,E09000008,Addiscombe East,E05011462,-0.0631193946474109,51.383076776552286,534880.9634499047,166671.92764797847,04/11/2021
The Circle Library,Green Wrythe Lane,Carshalton,,Sutton,,5870120398.0,E09000029,Wandle Valley,E05000571,-0.1744684917950393,51.38558359428003,527125.9655590327,166751.92762424907,04/11/2021
Broad Green,Canterbury Road,Croydon,,Croydon,,10000104509.0,E09000008,Broad Green,E05011465,-0.117133064188369,51.38537829481495,531115.9644717035,166829.9276038088,04/11/2021
Surbiton Library,Ewell Road,Surbiton,,Kingston upon Thames,,128006816.0,E09000021,Berrylands,E05000401,-0.2978862055774505,51.3928009895525,518519.9679013639,167347.92746048368,04/11/2021
Southborough Library,Southborough Lane,Bromley,,Bromley,,100022892170.0,E09000006,Bickley,E05000106,0.043403617341586,51.38991041626294,542271.9614411067,167632.9273855487,04/11/2021
Petts Wood Library,Frankswood Avenue,Orpington,,Bromley,,100022897997.0,E09000006,Petts Wood and Knoll,E05000124,0.07093331523559,51.390011788807456,544186.9609219648,167697.9273678796,04/11/2021
West Barnes Library,Station Road,New Malden,,Merton,,48085264.0,E09000024,West Barnes,E05000473,-0.239091395418632,51.3951605973236,522603.9667900642,167706.92736526811,04/11/2021
New Malden Library,Kingston Road,New Malden,,Kingston upon Thames,,128010803.0,E09000021,Beverley,E05000402,-0.2607989871591059,51.39929772108322,521082.9672033523,168130.92725095566,04/11/2021
Thornton Heath,Brigstock Road,Thornton Heath,,Croydon,,200001206453.0,E09000008,Bensham Manor,E05011464,-0.1055761195842058,51.396900779739525,531886.9642645293,168131.927248606,04/11/2021
South Norwood,Lawrence Road,,,Croydon,,200001210571.0,E09000008,South Norwood,E05011485,-0.0787059911814098,51.397299431222336,533754.9637548124,168224.92722424015,04/11/2021
Pollards Hill Library,South Lodge Avenue,Mitcham,,Merton,,48065103.0,E09000024,Pollards Hill,E05000467,-0.1318546930269435,51.4000969382812,530049.8747400217,168440.4571313564,04/11/2021
Morden Library,London Road,Morden,,Merton,,48083350.0,E09000024,Merton Park,E05000466,-0.1960175388099903,51.40152859895829,525582.9659790238,168487.92715418822,04/11/2021
Shortlands Library,Shortlands Road,Bromley,,Bromley,,100022891493.0,E09000006,Shortlands,E05000126,-0.0071794854151664,51.39977352925261,538722.9624084048,168632.92711185064,04/11/2021
Norbury,Beatrice Avenue,,,Croydon,,100023319420.0,E09000008,Norbury & Pollards Hill,E05011472,-0.120629872999332,51.40559626545291,530814.9645571063,169071.92699496547,04/11/2021
Bromley Central Library,High Street,Bromley,,Bromley,,100022886980.0,E09000006,Bromley Town,E05000109,0.0144742489057638,51.403764999162505,540216.9620015749,169117.92697948817,04/11/2021
Kingston Library,Fairfield Road,Kingston Upon Th,,Kingston upon Thames,,128019808.0,E09000021,Grove,E05000408,-0.3002491798682071,51.40934611453444,518312.9679544729,169183.92696208414,04/11/2021
Raynes Park Library,Approach Road,,,Merton,,48128562.0,E09000024,Dundonald,E05000459,-0.2277887139928908,51.40910040565223,523352.7665728128,169276.00689552637,04/11/2021
Mitcham Library,London Road,Mitcham,,Merton,,48083196.0,E09000024,Figge's Marsh,E05000460,-0.1624500890413566,51.408623908164046,527897.9653473786,169334.92692026315,04/11/2021
St Pauls Cray Library,Mickleham Road,Orpington,,Bromley,,100022898290.0,E09000006,Cray Valley West,E05000115,0.1032652553782952,51.40454328007679,546389.9603226336,169377.926910726,04/11/2021
Beckenham Library,Beckenham Road,Beckenham,,Bromley,,10003628986.0,E09000006,Clock House,E05000112,-0.0369332721177927,51.40862986300642,536626.9629745265,169561.92686065484,04/11/2021
Hampton,Rosehill,Hampton,,Richmond upon Thames,,100023398181.0,E09000027,Hampton,E05000520,-0.3702867919116321,51.41387532172656,513430.96928190993,169576.92685505108,04/11/2021
Hampton Wick,Bennet Close,Hampton Wick,,Richmond upon Thames,,10002251905.0,E09000027,Hampton Wick,E05000522,-0.3133145785707246,51.413788352127966,517392.9682079052,169656.9268357262,04/11/2021
Penge Library,Green Lane,,,Bromley,,10070007380.0,E09000006,Penge and Cator,E05000123,-0.0511021133343533,51.41392033412289,535625.9632493134,170123.92670712888,04/11/2021
Colliers Wood Library,High Street Collier's Wood,,,Merton,,48121555.0,E09000024,Colliers Wood,E05000457,-0.1774606892907694,51.41862164231011,526826.4255986001,170420.60661889176,04/11/2021
Upper Norwood,Westow Hill,,,Lambeth,,10091838065.0,E09000022,Gipsy Hill,E05000422,-0.0813335714935118,51.42003998782671,533505.9638236926,170748.9265378251,04/11/2021
Wimbledon Library,Wimbledon Hill Road,,,Merton,,48127190.0,E09000024,Hillside,E05000462,-0.2079525489081031,51.42243985745319,524695.9662188458,170792.92652630905,04/11/2021
Burnt Ash Library,Burnt Ash Lane,Bromley,,Bromley,,100022890161.0,E09000006,Plaistow and Sundridge,E05000125,0.0196966466098178,51.41981739697538,540530.9619139191,170912.9264929265,04/11/2021
Hampton Hill,High Street,Hampton Hill,,Richmond upon Thames,,10024344272.0,E09000027,Fulwell and Hampton Hill,E05000518,-0.3559273822102883,51.42651589213666,514397.9690190956,171004.9264666256,04/11/2021
Chislehurst Library,Red Hill,Chislehurst,,Bromley,,100022901114.0,E09000006,Chislehurst,E05000111,0.0647534858764072,51.42003975624142,543662.9610654722,171024.92646037595,04/11/2021
Tudor Drive Library,Tudor Drive,Kingston Upon Th,,Kingston upon Thames,,128039997.0,E09000021,Tudor,E05000415,-0.2975043129604656,51.42631988537038,518459.96791682,171075.92644799832,04/11/2021
Teddington,Waldegrave Road,Teddington,,Richmond upon Thames,,10002264575.0,E09000027,Teddington,E05000530,-0.3343782255970619,51.42774016606845,515892.968613738,171174.92642226105,04/11/2021
Tooting Library,Mitcham Road,,,Wandsworth,,121014131.0,E09000032,Graveney,E05000616,-0.1657588093486111,51.426553631811416,527617.9654241761,171322.92637992097,04/11/2021
Sydenham community library service,Sydenham Road,,,Lewisham,,100023262826.0,E09000023,Sydenham,E05000452,-0.040594374623262,51.42692871607006,536317.9630606032,171589.9263107038,04/11/2021
Downham Library,Moorside Road,Bromley,,Lewisham,,100022890162.0,E09000023,Downham,E05000442,0.0098607064187944,51.427072939198766,539824.9621084176,171700.9262772377,04/11/2021
Sidcup Library,Hadlow Road,Sidcup,,Bexley,,100022918511.0,E09000004,Sidcup,E05011230,0.1050344251506374,51.42584285174532,546444.9603073462,171749.9262663201,04/11/2021
Kingswood Library,Seeley Drive,,,Southwark,,200003436418.0,E09000028,Dulwich Wood,E05011101,-0.0817035029025868,51.43044179347691,533449.9638380159,171904.92622515786,04/11/2021
Streatham,Streatham High Road,,,Lambeth,,100023315960.0,E09000022,Streatham Wells,E05000432,-0.1291453613712909,51.43157773246783,530148.9647351261,171945.92621292872,04/11/2021
Coldharbour Library,William Barefoot Drive,Eltham,,Greenwich,,10010224659.0,E09000011,Coldharbour and New Eltham,E05000217,0.0573172469429651,51.430323322896136,543113.8011795362,172153.9061361276,04/11/2021
Ham,Ham Street,Ham,,Richmond upon Thames,,100023395688.0,E09000027,"Ham, Petersham and Richmond Riverside",E05000519,-0.3132322005670003,51.43788673618039,517336.9682188198,172336.9261058165,04/11/2021
Hanworth Library,Hampton Road West,Feltham,,Hounslow,,100023517802.0,E09000018,Hanworth,E05000353,-0.3888989790557881,51.44034546717658,512071.9696514228,172491.92606236966,04/11/2021
Forest Hill Library,Dartmouth Road,,,Lewisham,,100023257020.0,E09000023,Forest Hill,E05000444,-0.0561814279318095,51.43589345050378,535207.9633615606,172557.92604854185,04/11/2021
Grove Park community library service,Somertrees Avenue,,,Lewisham,,100023232090.0,E09000023,Grove Park,E05000445,0.0234875755027724,51.4359574416333,540744.9618575166,172714.92600374314,04/11/2021
Mottingham Library,Mottingham Road,,,Bromley,,100023283985.0,E09000006,Mottingham and Chislehurst North,E05000121,0.0436116265774889,51.43746092960498,542138.9614779579,172920.9259480709,04/11/2021
Heathfield Library Access Point,Percy Road,Twickenham,,Richmond upon Thames,,100023401561.0,E09000027,Heathfield,E05000523,-0.3644522478496199,51.4439813454894,513761.9691913473,172933.92594354664,04/11/2021
New Eltham Library,Southwood Road,Eltham,,Greenwich,,10010197970.0,E09000011,Coldharbour and New Eltham,E05000217,0.0712980109311056,51.43753031841211,544062.9409351735,172982.69588993036,04/11/2021
Earlsfield Library,Magdalen Road,,,Wandsworth,,100023328731.0,E09000032,Earlsfield,E05000612,-0.1867220566536764,51.44243722287376,526116.9658314805,173052.9259125868,04/11/2021
Feltham Library,High Street,Feltham,,Hounslow,,100023399114.0,E09000018,Feltham West,E05000352,-0.4110704158851389,51.44636331281082,510516.57005115296,173127.52586718474,04/11/2021
Southfields Library,Wimbledon Park Road,,,Wandsworth,,100023335031.0,E09000032,West Hill,E05000628,-0.2087096072358737,51.44354846362488,524585.9662492336,173138.9258870809,04/11/2021
Torridon Road Library,Torridon Road,,,Lewisham,,100023276877.0,E09000023,Catford South,E05000440,-0.0015708882847137,51.44234940047804,538983.962338323,173377.92582294188,04/11/2021
Twickenham,Garfield Road,Twickenham,,Richmond upon Thames,,100023574356.0,E09000027,Twickenham Riverside,E05000531,-0.3278885830697373,51.447484803958986,516293.9685030005,173380.92582255846,04/11/2021
Balham Library,Ramsden Road,,,Wandsworth,,100023306589.0,E09000032,Balham,E05000610,-0.1523365532207369,51.44547974899245,528497.965185466,173450.92580555327,04/11/2021
Catford library,Catford Road,,,Lewisham,,200000556121.0,E09000023,Rushey Green,E05000451,-0.0206692199215291,51.44461571417679,537649.9626981677,173593.92576374905,04/11/2021
Bexley Community Library,Bourne Road,Bexley,,Bexley,,100022922056.0,E09000004,St. Mary's & St. James,E05011229,0.1508400103065884,51.44276353035591,549573.9594555409,173723.92573157488,04/11/2021
Bedfont Library,Staines Road,Feltham,,Hounslow,,100023400018.0,E09000018,Bedfont,E05000346,-0.4342101907969996,51.45205186179584,508895.0704904159,173725.52570352075,04/11/2021
Roehampton Library,Danebury Avenue,,,Wandsworth,,100023314365.0,E09000032,Roehampton and Putney Heath,E05000621,-0.2420845480666362,51.44980882837217,522249.9668854912,173778.92571421777,04/11/2021
Whitton,Nelson Road,Twickenham,,Richmond upon Thames,,100023401915.0,E09000027,Whitton,E05000533,-0.359144796323774,51.45274653435447,514108.9690986928,173916.92567624885,04/11/2021
Dulwich Library,Lordship Lane,,,Southwark,,200003440972.0,E09000028,Dulwich Village,E05011100,-0.0745584439887533,51.44880497853627,533892.9637220181,173959.9256651976,04/11/2021
Blackfen Community Library,Blackfen Road,Sidcup,,Bexley,,10023305013.0,E09000004,Blackfen & Lamorbey,E05011220,0.1044283296231689,51.45018690877323,546325.0103262541,174455.71550655738,04/11/2021
Eltham Centre Library,Eltham High Street,Eltham,,Greenwich,,100023282187.0,E09000011,Eltham North,E05000218,0.0579052962089857,51.45103289017471,543089.9612178477,174457.92552777258,04/11/2021
Northcote Library,Northcote Road,,,Wandsworth,,100023304130.0,E09000032,Northcote,E05000619,-0.1643392757855865,51.455155598721326,527636.9654195373,174505.92551761074,04/11/2021
Wandsworth Town Library,Garratt Lane,,,Wandsworth,,121008322.0,E09000032,Fairfield,E05000614,-0.1924533216466154,51.456185724745694,525680.965952119,174571.9254992552,04/11/2021
Crayford Library,Townhall Square,Dartford,,Bexley,,10090792770.0,E09000004,Crayford,E05011222,0.180103802641422,51.44991417020312,551583.8289072689,174579.17549737834,04/11/2021
Richmond Information and Reference Library. Richmond Local Studies Library.,Whittaker Avenue,Richmond,,Richmond upon Thames,,10002264550.0,E09000027,South Richmond,E05000528,-0.3064131318053781,51.45885770501777,517756.9681062112,174679.92546862114,04/11/2021
Crofton Park community library service,Brockley Road,,,Lewisham,,100023271665.0,E09000023,Crofton Park,E05000441,-0.0362934843707729,51.45544509695252,536531.9630004575,174768.9254461493,04/11/2021
Manor House Library,Old Road,,,Lewisham,,100023570127.0,E09000023,Lee Green,E05000447,0.0045094148340282,51.45731767101268,539360.9622339455,175053.92536752747,04/11/2021
Richmond Lending Library,Little Green,Richmond,,Richmond upon Thames,,10002249444.0,E09000027,South Richmond,E05000528,-0.3036945700196121,51.46229853418381,517936.968057504,175066.92536325537,04/11/2021
Putney Library,Disraeli Road,,,Wandsworth,,100023313019.0,E09000032,Thamesfield,E05000625,-0.2158847860956793,51.46178720851301,524037.9663987382,175154.92534204206,04/11/2021
Central Library,Townley Road,Bexleyheath,,Bexley,,100022922362.0,E09000004,Bexleyheath,E05011219,0.1437758112223857,51.45599566160382,549039.9595993898,175180.9253326826,04/11/2021
Lewisham Library,Lewisham High Street,,,Lewisham,,100023234441.0,E09000023,Lewisham Central,E05000448,-0.0116572050397859,51.45927449780076,538231.9625396793,175240.9253173179,04/11/2021
Carnegie library (Herne Hill),Herne Hill Road,,,Lambeth,,10091838239.0,E09000022,Herne Hill,E05000423,-0.0965835044126868,51.46078360288202,532327.9641446387,175251.92531237466,04/11/2021
Brixton,Brixton Oval,,,Lambeth,,200000455963.0,E09000022,Coldharbour,E05000420,-0.1147231626272308,51.46110378780804,531066.9644857298,175254.92531360558,04/11/2021
Grove Vale Library,Grove Vale,,,Southwark,,200003443932.0,E09000028,Goose Green,E05011103,-0.0793025935811247,51.46161675820898,533525.9638173911,175375.92527881358,04/11/2021
Clapham,Clapham High Street,,,Lambeth,,10090197569.0,E09000022,Ferndale,E05000421,-0.1336492171970935,51.463106902941135,529746.5948506027,175443.99526808847,04/11/2021
East Sheen,Sheen Lane,,,Richmond upon Thames,,100023310505.0,E09000027,East Sheen,E05000517,-0.2675868630400159,51.46541281685656,520436.96737865405,175471.9252549184,04/11/2021
Battersea Library,Lavender Hill,,,Wandsworth,,100023297401.0,E09000032,Shaftesbury,E05000623,-0.1641418149488592,51.464028301439264,527625.9654222246,175492.92524821288,04/11/2021
Isleworth Library,Twickenham Road,Isleworth,,Hounslow,,100023407264.0,E09000018,Isleworth,E05000362,-0.3301156693406273,51.46690964969812,516089.9685614265,175537.52521190554,04/11/2021
Hounslow Library,High Street,Hounslow,,Hounslow,,100023402396.0,E09000018,Hounslow Central,E05000358,-0.3630253463099741,51.468133526919225,513801.1091357505,175622.0151802436,04/11/2021
Beavers Library,Salisbury Road,Hounslow,,Hounslow,,10093260482.0,E09000018,Cranford,E05000350,-0.3964059440129527,51.47023754309159,511477.4897725192,175804.6751632457,04/11/2021
York Gardens Library,Lavender Road,,,Wandsworth,,10091844398.0,E09000032,Latchmere,E05000617,-0.1777202106438472,51.46722565711844,526673.9656829655,175824.9251566414,04/11/2021
Welling Library,Bellegrove Road,Welling,,Bexley,,100022920830.0,E09000004,Falconwood & Welling,E05011226,0.1061763449714797,51.462531706015504,546406.9603189962,175831.92515727284,04/11/2021
Hurlingham and Chelsea School and Community Library ,Peterborough Road,,,Hammersmith and Fulham,,34063756.0,E09000013,Sands End,E05000262,-0.1965001992063294,51.46782168220948,525367.9660397246,175858.92514789983,04/11/2021
Nunhead Library,Gordon Road,,,Southwark,,200003385977.0,E09000028,Nunhead & Queen's Road,E05011108,-0.0596911884227418,51.46579007526535,534875.9634513928,175875.92514376406,04/11/2021
Blackheath Village community library service,Blackheath Grove,,,Lewisham,,100023268086.0,E09000023,Blackheath,E05000438,0.0095775805375815,51.46619682016089,539685.9621433753,176050.92509520176,04/11/2021
Minet,Knatchbull Road,,,Lambeth,,100021859495.0,E09000022,Vassall,E05000436,-0.1053902335891044,51.471295012314776,531685.9643184426,176404.9250015731,04/11/2021
Battersea Park Library,Battersea Park Road,,,Wandsworth,,100023301848.0,E09000032,Queenstown,E05000620,-0.1544238399420041,51.474388157118845,528271.9652454042,176661.9249297087,04/11/2021
Cranford Library,Bath Road,Hounslow,,Hounslow,,100023405818.0,E09000018,Cranford,E05000350,-0.4064455416865627,51.47815067032317,510761.06998417294,176669.42492911842,04/11/2021
Kew,North Road,Kew,,Richmond upon Thames,,100023410988.0,E09000027,Kew,E05000524,-0.2846345022180666,51.47650840735147,519223.9677066781,176677.92492730194,04/11/2021
Peckham Library,Peckham Hill Street,,,Southwark,,200003394812.0,E09000028,Peckham,E05011110,-0.0693488405978242,51.47438492807344,534179.9636416273,176813.9248893648,04/11/2021
Fulham,Fulham Road,,,Hammersmith and Fulham,,34044300.0,E09000013,Town,E05000264,-0.202680189592064,51.47726891717708,524912.9661624572,176898.9248684743,04/11/2021
Camberwell Library,Camberwell Green,,,Southwark,,10090749181.0,E09000028,Camberwell Green,E05011096,-0.0926165465601637,51.47582706649945,532559.9640800752,176931.92485812766,04/11/2021
New Cross community library service,New Cross Road,,,Lewisham,,100023239028.0,E09000023,New Cross,E05000449,-0.0386713076812923,51.47552113785268,536306.963061503,176996.92483890377,04/11/2021
North Heath Community Library,Mill Road,Erith,,Bexley,,10011846473.0,E09000004,Northumberland Heath,E05011228,0.1613203693696458,51.47329976308472,550201.9592869194,177140.92480066945,04/11/2021
Castelnau,Castelnau,,,Richmond upon Thames,,100023309520.0,E09000027,Barnes,E05000516,-0.23758762539437,51.48026254844265,522480.9668213043,177172.92479229002,04/11/2021
Slade Green Community Library,Chrome Road,Erith,,Bexley,,10090794390.0,E09000004,Slade Green & Northend,E05011231,0.1909819640631041,51.47312348543837,552262.3887182947,177182.55479376222,04/11/2021
Osterley Library,St Marys Crescent,Isleworth,,Hounslow,,100023406343.0,E09000018,Osterley and Spring Grove,E05000363,-0.3458919208861107,51.4823315350001,514955.4688665304,177227.62472664565,04/11/2021
Tate South Lambeth,South Lambeth Road,,,Lambeth,,100023383422.0,E09000022,Oval,E05000426,-0.123957652822307,51.47920138584308,530373.9646736038,177250.92477117362,04/11/2021
The Library at Deptford Lounge,Giffin Street,,,Lewisham,,10023235598.0,E09000023,New Cross,E05000449,-0.0242771211563458,51.477707425061055,537299.9627920247,177266.92476609803,04/11/2021
Blackheath Library,Old Dover Road,Blackheath,,Greenwich,,100023268277.0,E09000011,Blackheath Westcombe,E05000215,0.0215577962822391,51.47698021011305,540484.9619261918,177272.92476624955,04/11/2021
West Greenwich Library,Greenwich High Road,Greenwich,,Greenwich,,10010200468.0,E09000011,Greenwich West,E05000222,-0.0112746713209485,51.47800015810833,538201.9625475925,177323.92475057428,04/11/2021
Bostall Community Library,King Harolds Way,Bexleyheath,,Bexley,,100022923151.0,E09000004,West Heath,E05011233,0.1299109961441072,51.47570024883505,548012.9598784036,177343.92474693077,04/11/2021
Heston Library,New Heston Road,Hounslow,,Hounslow,,100023405372.0,E09000018,Heston Central,E05000355,-0.3754285511403092,51.48587215049341,512895.8693925018,177575.42468321114,04/11/2021
Brandon Library,Maddock Way,,,Southwark,,200003494326.0,E09000028,Newington,E05011105,-0.1029294103276388,51.48272095212902,531823.9642840625,177679.92465270282,04/11/2021
Charlton Library,Charlton Road,Charlton,,Greenwich,,100023280005.0,E09000011,Charlton,E05000216,0.0371805083175744,51.480477808198174,541558.9616344546,177691.9246521355,04/11/2021
Brentford Library ,Boston Manor Road,Brentford,,Hounslow,,100023408161.0,E09000018,Brentford,E05000347,-0.3075706338514477,51.48661122411974,517605.26813550416,177764.32459491026,04/11/2021
Erith Library,Erith High Street,Erith,,Bexley,,10023303354.0,E09000004,Erith,E05011225,0.1813836741725611,51.47912430033947,551575.9589120407,177829.92461282713,04/11/2021
Chelsea Library,King's Road,,,Kensington and Chelsea,,217105143.0,E09000020,Royal Hospital,E05009403,-0.1681703312012004,51.48747215654873,527280.9655144423,178092.9245425256,04/11/2021
Greenwich Centre Library,Lambarde Square,Greenwich,,Greenwich,,10010254284.0,E09000011,Peninsula,E05000225,0.0083832671473111,51.485593460960864,539543.8221675676,178205.5445070882,04/11/2021
Pimlico Library,Lupus Street,,,City of Westminster,,10033620911.0,E09000033,Tachbrook,E05000645,-0.1371717887097066,51.488179174976445,529431.0249292253,178225.84448712855,04/11/2021
Upper Belvedere Community Library,Woolwich Road,Belvedere,,Bexley,,100022921251.0,E09000004,Belvedere,E05011218,0.1452452957210369,51.48392800841441,549050.959595881,178289.92448752397,04/11/2021
Durning,Kennington Lane,,,Lambeth,,100023229223.0,E09000022,Prince's,E05000427,-0.1100815555249121,51.48878961220636,531309.9644212418,178341.92447292397,04/11/2021
Brompton Library,Old Brompton Road,,,Kensington and Chelsea,,217060921.0,E09000020,Redcliffe,E05009402,-0.1884055400146097,51.49007960038615,525868.965899565,178347.92447118822,04/11/2021
Chiswick Library,Dukes Avenue,,,Hounslow,,200002819006.0,E09000018,Turnham Green,E05000365,-0.26108546488676,51.4916957402861,520819.1672242407,178405.3244209914,04/11/2021
Plumstead Library,Plumstead High Street,Plumstead,,Greenwich,,100023243067.0,E09000011,Plumstead,E05000226,0.0962846336866874,51.48636932900989,545643.9605233647,178462.92444127385,04/11/2021
Avonmore Library and Neighbourhood Centre,North End Crescent,,,Hammersmith and Fulham,,34058302.0,E09000013,Avonmore and Brook Green,E05000252,-0.2071202071093801,51.49257937341141,524562.9662555805,178593.92440666078,04/11/2021
Pepys community library service,Foreshore,,,Lewisham,,100023569428.0,E09000023,Evelyn,E05000443,-0.030667505987594,51.48982051294296,536819.9629244455,178601.92440300743,04/11/2021
East Street Library,Old Kent Road,,,Southwark,,200003494660.0,E09000028,North Walworth,E05011107,-0.0816878639391387,51.490900505131805,533274.9638865427,178627.92439689377,04/11/2021
Woolwich Library,Love Lane,Woolwich,,Greenwich,,10010239328.0,E09000011,Woolwich Common,E05000229,0.0654205366171997,51.48927120880806,543492.1411008268,178724.70433784818,04/11/2021
Victoria Library,Buckingham Palace Road,,,City of Westminster,,10033616882.0,E09000033,Warwick,E05000647,-0.1478418828952152,51.49290818752285,528676.9651348334,178732.92436792486,04/11/2021
Harlington Library,Pinkwell Lane,Hayes,,Hillingdon,,10003001185.0,E09000017,Pinkwell,E05000337,-0.4364846199877283,51.49759691189694,508628.970589222,178786.9243525926,04/11/2021
Hammersmith,Shepherd's Bush Road,,,Hammersmith and Fulham,,34027231.0,E09000013,Hammersmith Broadway,E05000256,-0.2236662900477618,51.494584693069335,523408.9665690265,178788.9243522979,04/11/2021
Blue Anchor Library,Market Place,,,Southwark,,200003408074.0,E09000028,South Bermondsey,E05011116,-0.0636689876585828,51.492888416406586,534519.9635495432,178881.92432882427,04/11/2021
Newington Temporary Library,Elephant Road,,,Southwark,,10093341252.0,E09000028,North Walworth,E05011107,-0.0985371217130794,51.49395818267347,532096.4741554299,178937.42431115988,04/11/2021
Northfields Library,Northfield Avenue,Ealing,,Ealing,,12004049.0,E09000009,Northfield,E05000182,-0.3141456274609291,51.49903110673739,517116.9682813632,179134.92425896088,04/11/2021
Express Library,St Ann's Street,,,City of Westminster,,100023338401.0,E09000033,St. James's,E05000644,-0.1301485254275391,51.49755544020631,529891.9648049297,179280.92421977216,04/11/2021
Abbey Wood Library,Eynsham Drive,Abbey Wood,,Greenwich,,10010232562.0,E09000011,Abbey Wood,E05000214,0.1101953668981559,51.49375806621556,546586.0002464494,179312.29420610698,04/11/2021
Cubitt Town library,Strattondale Street,,,Tower Hamlets,,6081796.0,E09000030,Blackwall & Cubitt Town,E05009318,-0.0117738744589681,51.49597638746854,538112.9625722067,179321.9242063575,04/11/2021
Waterloo,Kennington Road,,,Lambeth,,100023225318.0,E09000022,Bishop's,E05000416,-0.111911792731906,51.498180532469874,531155.9644622987,179382.9241920344,04/11/2021
Canada Water Library,Surrey Quays Road,,,Southwark,,10090284129.0,E09000028,Rotherhithe,E05011112,-0.0491536087316213,51.49780959346151,535512.9632780959,179455.92417356407,04/11/2021
Southall Library (Dominion Centre and Library),Osterley Park Road,Southall,,Ealing,,12020455.0,E09000009,Norwood Green,E05000186,-0.3791271839460157,51.50338220325516,512595.9695073738,179516.92415607185,04/11/2021
Kensington Central Library,Phillimore Walk,,,Kensington and Chelsea,,217125485.0,E09000020,Campden,E05009390,-0.1944060926388149,51.50141889533559,525421.286028223,179598.58410744683,04/11/2021
West Drayton Library,Station Road,West Drayton,,Hillingdon,,100023420922.0,E09000017,West Drayton,E05000342,-0.470240902738304,51.50571265084852,506266.97123141895,179639.92412247462,04/11/2021
Askew Road,Askew Road,,,Hammersmith and Fulham,,34011906.0,E09000013,Askew,E05000251,-0.2430385301354489,51.50368018316416,522039.96693990345,179767.9240850634,04/11/2021
John Harvard Library,Borough High Street,,,Southwark,,200003356510.0,E09000028,Chaucer,E05011098,-0.0919082389041375,51.501768664457686,532533.9640894843,179817.9240721048,04/11/2021
Botwell Green Library,East Avenue,Hayes,,Hillingdon,,10022805611.0,E09000017,Townfield,E05000339,-0.4178401526100187,51.5084792406569,509896.970239931,180024.9240176137,04/11/2021
Acton Town Hall Library,High Street,Acton,,Ealing,,12180771.0,E09000009,South Acton,E05000188,-0.2678916296943721,51.50640575549801,520307.9674132693,180029.92401728895,04/11/2021
North Woolwich Library,Pier Parade,,,Newham,,10008995497.0,E09000025,Royal Docks,E05000491,0.0626662072577145,51.50106635464015,543263.9611692192,180030.9240131178,04/11/2021
Thamesmead Library,Binsey Walk,,,Bexley,,100020239019.0,E09000004,Thamesmead East,E05011232,0.1226018670388912,51.50032934688435,547425.9600412401,180067.9240056633,04/11/2021
Idea Store Canary Wharf,Churchill Place,,,Tower Hamlets,,6145802.0,E09000030,Canary Wharf,E05009323,-0.0147656707448456,51.50441913154223,537879.8126110017,180255.1039455454,04/11/2021
West Ealing Library,Melbourne Avenue,West Ealing,,Ealing,,12002863.0,E09000009,Walpole,E05000192,-0.3245240039829782,51.50949413038908,516369.9684829128,180281.9239463071,04/11/2021
Hanwell Library,Cherington Road,Hanwell,,Ealing,,12001465.0,E09000009,Elthorne,E05000176,-0.3360943809674782,51.50992857111256,515565.9687003134,180311.92393883748,04/11/2021
Mayfair Library,South Audley Street,,,City of Westminster,,100022802697.0,E09000033,West End,E05000649,-0.1511225825149399,51.509371642069,528402.9652095624,180557.92387423545,04/11/2021
Ealing Central Library,The Broadway,Ealing,,Ealing,,12148296.0,E09000009,Ealing Broadway,E05000173,-0.3023701156743837,51.51233211687013,517899.9680648097,180632.9238502785,04/11/2021
Yiewsley Library,High Street,West Drayton,,Hillingdon,,100023420805.0,E09000017,Yiewsley,E05000345,-0.4740464924475635,51.515150115969135,505980.9713071002,180683.92383833943,04/11/2021
Notting Hill Gate Library,Pembridge Square,,,Kensington and Chelsea,,217105238.0,E09000020,Pembridge,E05009400,-0.1973929759947187,51.5112788770773,525186.9660849748,180689.9238372218,04/11/2021
Charing Cross Library,Charing Cross Road,,,City of Westminster,,10033531833.0,E09000033,St. James's,E05000644,-0.1280999385683259,51.510274454912825,529997.9647772341,180698.92383321465,04/11/2021
Thamesmere Library,Thamesmere Drive,Thamesmead,,Greenwich,,10010224992.0,E09000011,Thamesmead Moorings,E05000228,0.1091895541075445,51.5077323358267,546471.3902902965,180864.21376768316,04/11/2021
Idea Store Chrisp Street,Vesey Path,,,Tower Hamlets,,6173963.0,E09000030,Lansbury,E05009325,-0.0144504010734781,51.51156298376159,537880.1226094011,181050.07370031305,04/11/2021
North Kensington Library,Ladbroke Grove,,,Kensington and Chelsea,,217048255.0,E09000020,Colville,E05009392,-0.2092007872719849,51.51666647068485,524352.9663128431,181268.92367965195,04/11/2021
Idea Store Watney Market,Commercial Road,,,Tower Hamlets,,6196250.0,E09000030,Shadwell,E05009332,-0.0572389082461565,51.51433756665652,534902.963443914,181278.9236757589,04/11/2021
Shoe Lane,Little New Street,,,City and County of the City of London,,200000075492.0,E09000001,Castle Baynard,E05009297,-0.1065568164810948,51.51544126208277,531477.9643743138,181311.923666392,04/11/2021
Paddington Library,Porchester Road,,,City of Westminster,,100023482172.0,E09000033,Bayswater,E05000631,-0.1886175904606447,51.517420561779865,525778.9659244145,181387.9236475161,04/11/2021
Artizan Street,Artizan Street,,,City and County of the City of London,,95511788.0,E09000001,Portsoken,E05009308,-0.0767702755795406,51.51565786521084,533543.9638136266,181389.9236478024,04/11/2021
Guildhall Library and City Business Library,Aldermanbury,,,City and County of the City of London,,100023529028.0,E09000001,Bassishaw,E05009290,-0.0928236223742909,51.5160730392103,532428.9641168155,181406.92364239693,04/11/2021
Yeading Library,Yeading Lane,Hayes,,Hillingdon,,100023417063.0,E09000017,Barnhill,E05000324,-0.4041349974641122,51.52087366045075,510817.9699922847,181423.92363692028,04/11/2021
Jubilee Gardens Library,Jubilee Gardens,Southall,,Ealing,,12000640.0,E09000009,Lady Margaret,E05000181,-0.3694841596411997,51.52123328606379,513220.9693387061,181516.9236118436,04/11/2021
Custom House Library,Prince Regent Lane,,,Newham,,10008990024.0,E09000025,Custom House,E05000479,0.0314081741760952,51.51518231784571,541050.9617739958,181539.92360606996,04/11/2021
Beckton Library,Kingsford Way,,,Newham,,10008997116.0,E09000025,Beckton,E05000475,0.0553990808562821,51.51503400034253,542715.9613197406,181569.9235966571,04/11/2021
Canning Town Library,Barking Road,,,Newham,,10008988046.0,E09000025,Canning Town North,E05000477,0.0110670733828218,51.5173678498622,539632.9621592908,181743.92355107676,04/11/2021
Marylebone Library,Beaumont Street,,,City of Westminster,,100022725022.0,E09000033,Marylebone High Street,E05000641,-0.1506375119879402,51.52063183792448,528404.9652089169,181810.9235320018,04/11/2021
Barbican,Silk Street,,,City and County of the City of London,,200000072620.0,E09000001,Cripplegate,E05009302,-0.0941025868567625,51.51996070969431,532328.9641439863,181836.9235256182,04/11/2021
Idea Store Whitechapel,Whitechapel Road,,,Tower Hamlets,,6000711.0,E09000030,Spitalfields & Banglatown,E05009333,-0.0580161031718924,51.51978200390365,534832.9634635847,181882.92351240024,04/11/2021
Holborn Library,Theobald's Road,,,Camden,,5082117.0,E09000007,Holborn and Covent Garden,E05000138,-0.1157026417740875,51.5211820142728,530826.9645532902,181933.9234973102,04/11/2021
Hayes End Library,Uxbridge Road,Hayes,,Hillingdon,,100023417260.0,E09000017,Charville,E05000328,-0.4361038237153604,51.52598024425166,508587.9705978525,181943.9234943768,04/11/2021
Little Venice Sports Centre Library,Crompton Street,,,City of Westminster,,10033612553.0,E09000033,Little Venice,E05000639,-0.1771849588311924,51.5225401390285,526557.9657121842,181976.92348671335,04/11/2021
Church Street Library,Church Street,,,City of Westminster,,10033532267.0,E09000033,Church Street,E05000634,-0.1701594227543919,51.52303327026871,527043.9655801717,182043.9234688331,04/11/2021
Kensal Library,Golborne Road,,,Kensington and Chelsea,,217035223.0,E09000020,Golborne,E05009396,-0.2068576956183943,51.523842759666856,524495.966272932,182070.92346114467,04/11/2021
Rainham Library,Celtic Farm Road,Rainham,,Havering,,10024389958.0,E09000016,Rainham and Wennington,E05000318,0.1910568479416507,51.51726756989826,552120.4987447774,182091.32341971784,04/11/2021
Pitshanger Library,Pitshanger Lane,Ealing,,Ealing,,12132976.0,E09000009,Cleveland,E05000171,-0.3139169820127694,51.52589729908327,517063.968292428,182122.92344782405,04/11/2021
Maida Vale Library,Sutherland Avenue,,,City of Westminster,,100023511234.0,E09000033,Westbourne,E05000648,-0.1904344802845889,51.52466969126681,525632.9659632224,182190.92342802283,04/11/2021
Local History Library,Bancroft Road,,,Tower Hamlets,,6033654.0,E09000030,Bethnal Green,E05009317,-0.0423471974658414,51.523819975243946,535907.9631736489,182360.9233827836,04/11/2021
Queen's Park library,Harrow Road,,,City of Westminster,,100023433123.0,E09000033,Queen's Park,E05000642,-0.2109133746500165,51.52702511882832,524205.96635199816,182417.92336703523,04/11/2021
Greenford Library,Oldfield Lane South,Greenford,,Ealing,,12001186.0,E09000009,Greenford Broadway,E05000177,-0.3552361187623169,51.52981095004077,514187.9690777944,182492.9233449609,04/11/2021
Finsbury Library,St John Street,,,Islington,,5300084848.0,E09000019,Clerkenwell,E05000370,-0.1045269999041977,51.52648754915111,531586.9643476697,182543.92333443527,04/11/2021
Bethnal Green library,Cambridge Heath Road,,,Tower Hamlets,,6036905.0,E09000030,Bethnal Green,E05009317,-0.0537393352396813,51.526437503257526,535109.963391297,182630.9233086484,04/11/2021
Charville Library,Bury Avenue,Hayes,,Hillingdon,,100023417465.0,E09000017,Charville,E05000328,-0.4275151481837989,51.53509140849695,509161.97044337785,182969.92321804503,04/11/2021
Shoreditch Library,Hoxton Street,,,Hackney,,100023135480.0,E09000012,Hoxton East & Shoreditch,E05009377,-0.0799101176942736,51.53043934026169,533282.9638864312,183027.9232007489,04/11/2021
Thames View,Bastable Avenue,Barking,,Barking and Dagenham,,10091588559.0,E09000002,Thames,E05000039,0.1045482607280453,51.527867646980845,546084.9604050822,183093.9231820908,04/11/2021
Plaistow Library,North Street,,,Newham,,46096940.0,E09000025,Plaistow North,E05000489,0.025638459230297,51.52969780932317,540605.9618955007,183142.92316947115,04/11/2021
St John's Wood Library,Circus Road,,,City of Westminster,,10033532542.0,E09000033,Abbey Road,E05000630,-0.172426048058209,51.53374287660802,526856.9656288775,183230.9231448467,04/11/2021
Pancras Square Library,Pancras Square,,,Camden,,5172479.0,E09000007,St. Pancras and Somers Town,E05000143,-0.1263837204559016,51.5338260074826,530049.964766389,183320.92312090463,04/11/2021
Camden Town Library,Eversholt Street,,,Camden,,5021816.0,E09000007,Regent's Park,E05000142,-0.1377428158273887,51.53424964332502,529260.9649801243,183347.9231146294,04/11/2021
Idea Store Bow,Gladstone Place,,,Tower Hamlets,,6053810.0,E09000030,Bow East,E05009319,-0.0299037747660431,51.532559450207216,536744.962942905,183355.9231113579,04/11/2021
East Ham Library,Barking Road,,,Newham,,46253323.0,E09000025,East Ham Central,E05000480,0.0554548031557926,51.53228124056825,542665.9613353823,183487.92307693465,04/11/2021
Kilburn Library Centre,Kilburn High Road,,,Camden,,5134480.0,E09000007,Kilburn,E05000140,-0.1911230363006127,51.53638870688633,525552.9659845328,183492.92307369292,04/11/2021
South Hornchurch Library,Rainham Road,Rainham,,Havering,,100023214503.0,E09000016,South Hornchurch,E05000321,0.1875628791050738,51.53021559546608,551835.0788367825,183523.9030472876,04/11/2021
Northolt Library,Church Road,Northolt,,Ealing,,12140961.0,E09000009,Northolt West End,E05000185,-0.3854101554456,51.539635937202455,512070.9696516794,183538.92306284688,04/11/2021
Harlesden,Craven Park Road,,,Brent,,202110706.0,E09000005,Harlesden,E05000091,-0.2504721285511835,51.53868242794776,521430.9671044777,183647.92303396435,04/11/2021
Oak Farm Library,Sutton Court Road,Uxbridge,,Hillingdon,,100023414220.0,E09000017,Hillingdon East,E05000332,-0.4500906968658077,51.54156070224151,507580.9708753232,183655.92303214548,04/11/2021
Lewis Carroll Children's Library,Copenhagen Street,,,Islington,,10012791189.0,E09000019,Caledonian,E05000368,-0.11729572444555,51.537070788927245,530670.9645956919,183697.92301700945,04/11/2021
Perivale Library,Horsenden Lane South,Perivale,,Ealing,,12003797.0,E09000009,Perivale,E05000187,-0.3240444585421291,51.54060106618722,516323.9684967109,183741.9230062125,04/11/2021
Green Street Library,Green Street,,,Newham,,10009001054.0,E09000025,Green Street East,E05000485,0.0353082545229275,51.536391735179805,541255.9617189604,183905.92296321117,04/11/2021
South Library,Essex Road,,,Islington,,5300031416.0,E09000019,St. Mary's,E05000379,-0.0987274576465751,51.53903734783922,531952.964247037,183949.92295148535,04/11/2021
Barking,Town Square,Barking,,Barking and Dagenham,,100053358.0,E09000002,Abbey,E05000026,0.0798187280251395,51.536321314579695,544342.9608795721,183984.92293991748,04/11/2021
Uxbridge Library,High Street,Uxbridge,,Hillingdon,,100023421562.0,E09000017,Uxbridge South,E05000341,-0.4782767141894988,51.54518515249601,505617.9714063839,184017.9229329521,04/11/2021
Chalk Farm (now Primrose Hill Community Library),Sharpleshall Street,,,Camden,,5154072.0,E09000007,Camden Town with Primrose Hill,E05000130,-0.1566702340534906,51.54114015975794,527928.9653407894,184080.92291450268,04/11/2021
West Library,Bridgeman Road,,,Islington,,5300011807.0,E09000019,Caledonian,E05000368,-0.116178031044767,51.54073985232338,530737.9645752062,184107.92290518887,04/11/2021
Swiss Cottage Library,Avenue Road,,,Camden,,5061473.0,E09000007,Swiss Cottage,E05000144,-0.1732083668544522,51.54228907458206,526778.9656516052,184179.9228882196,04/11/2021
Stratford Library,The Grove,,,Newham,,46101428.0,E09000025,Stratford and New Town,E05000492,0.0043559648523883,51.54277052536793,539089.9623049725,184555.9227853669,04/11/2021
Willesden Green,High Road,,,Brent,,202216288.0,E09000005,Willesden Green,E05000105,-0.2289214989831069,51.5466504009109,522903.9667075057,184569.92278124887,04/11/2021
Dagenham,Church Elm Lane,Dagenham,,Barking and Dagenham,,10023599312.0,E09000002,Village,E05000041,0.148461447412393,51.54038101481325,549089.9595886918,184573.922782105,04/11/2021
Northolt Leisure Centre Library,Eastcote Lane North,Northolt,,Ealing,,12173354.0,E09000009,Northolt Mandeville,E05000184,-0.3684797608344367,51.54889944363907,513222.05930507695,184595.13273392664,04/11/2021
Hackney Central Library,Reading Lane,,,Hackney,,10008243137.0,E09000012,Hackney Central,E05009372,-0.0560703076671313,51.54447929868019,534894.9634465151,184632.92276584363,04/11/2021
Dalston CLR James Library,Dalston Square,,,Hackney,,10008322989.0,E09000012,Dalston,E05009370,-0.0739330311165172,51.546047399645325,533651.8237682488,184774.50268205605,04/11/2021
Ealing Road,Ealing Road,Wembley,,Brent,,202102174.0,E09000005,Wembley Central,E05000104,-0.2974223345243054,51.54953419172751,518146.9680006942,184777.92272303248,04/11/2021
Belsize Community Library,Antrim Road,,,Camden,,5045720.0,E09000007,Belsize,E05000128,-0.1622527185689428,51.54790026934915,527522.9654521256,184822.9227146525,04/11/2021
Mildmay Library,Mildmay Park,,,Islington,,5300062563.0,E09000019,Mildmay,E05000377,-0.0843075484860017,51.54760616918449,532927.9639809256,184928.92268464336,04/11/2021
West Hampstead Library,Dennington Park Road,,,Camden,,5037144.0,E09000007,West Hampstead,E05000145,-0.1916088905289471,51.55031675047688,525480.9660041387,185040.9226551248,04/11/2021
Barham Park,Harrow Road,Wembley,,Brent,,202209694.0,E09000005,Sudbury,E05000101,-0.311416087796811,51.5521822873598,517169.9682648821,185049.92265177015,04/11/2021
Wood End Library,Whitton Avenue West,Greenford,,Ealing,,12001293.0,E09000009,North Greenford,E05000183,-0.3498501757625641,51.55277367710072,514503.9689922764,185054.92265164197,04/11/2021
Islington Central Library,Fieldway Crescent,,,Islington,,5300033298.0,E09000019,Highbury East,E05000372,-0.1071294672468351,51.54923604460503,531340.9644118594,185068.9226455304,04/11/2021
Kentish Town Library,Kentish Town Road,,,Camden,,5085726.0,E09000007,Kentish Town,E05000139,-0.140445307929155,51.55001174514965,529028.965041315,185095.92263962963,04/11/2021
Queens Crescent Library,Queen's Crescent,,,Camden,,5055133.0,E09000007,Gospel Oak,E05000134,-0.1511717960418145,51.55048696924614,528283.9652457098,185129.9226306702,04/11/2021
The Gate Library ,Woodgrange Road,,,Newham,,10008993577.0,E09000025,Forest Gate South,E05000484,0.0255148982688684,51.547703484992354,540541.9619102099,185144.92262488848,04/11/2021
Homerton Library,Homerton High Street,,,Hackney,,100023022501.0,E09000012,King's Park,E05009379,-0.0417439152019278,51.54896231292343,535874.9631786781,185157.92262282703,04/11/2021
John Barnes Library,Rowstock Gardens,,,Islington,,10093108781.0,E09000019,Holloway,E05000375,-0.1257958184332612,51.55093872275794,530041.9647661131,185224.92260435305,04/11/2021
Uphall School Library,Uphall Road,Ilford,,Redbridge,,100023043973.0,E09000026,Loxford,E05011247,0.072157542124976,51.54797663299112,543774.9610327648,185265.9225917015,04/11/2021
South Ruislip Library,Victoria Road,Ruislip,,Hillingdon,,10003002133.0,E09000017,South Ruislip,E05000338,-0.3951208686310998,51.55733573379721,511354.3798202437,185492.4324778792,04/11/2021
Manor Park Library,Romford Road,,,Newham,,10008990819.0,E09000025,Manor Park,E05000488,0.0469964069227104,51.55072047016554,542021.9615100165,185521.922523646,04/11/2021
Keats Community Library,Keats Grove,,,Camden,,5085918.0,E09000007,Hampstead Town,E05000135,-0.1682077029392199,51.55548416676798,527088.9655676862,185655.92248831573,04/11/2021
Cricklewood,Olive Road,,,Brent,,202217896.0,E09000005,Mapesbury,E05000095,-0.2273708298559804,51.55686058827446,522983.9666858531,185707.9224726662,04/11/2021
Elm Park Library,St Nicholas Avenue,Hornchurch,,Havering,,100023214017.0,E09000016,St. Andrew's,E05000320,0.1985075658049549,51.55250692897841,552519.7386262647,186025.37233682236,04/11/2021
Ickenham Library,Community Close,Ickenham,,Hillingdon,,100023413527.0,E09000017,Ickenham,E05000333,-0.4435006165134365,51.56352250077634,507985.9707617552,186107.92236380305,04/11/2021
Roxeth,Northolt Road,Harrow,,Harrow,,200000307802.0,E09000015,Roxeth,E05000302,-0.3565204536052971,51.5626149763032,514016.9691258691,186138.92235590584,04/11/2021
Harrow Green Community Library,Cathall Road,Leytonstone,,Waltham Forest,,100022963778.0,E09000031,Cathall,E05000591,0.0064737742843295,51.55812975111253,539189.9622795356,186267.92231885804,04/11/2021
North Library,Manor Gardens,,,Islington,,5300060053.0,E09000019,Finsbury Park,E05000371,-0.1217561244734165,51.56041527433732,530294.9646982616,186285.9223163136,04/11/2021
Leyton Library,High Road Leyton,Leyton,,Waltham Forest,,10009148520.0,E09000031,Leyton,E05000604,-0.0075364583673785,51.55873732719498,538216.9625455157,186308.922309493,04/11/2021
Childs Hill ,Cricklewood Lane,,,Barnet,,200219960.0,E09000003,Childs Hill,E05000045,-0.2006677922917506,51.56217404481561,524820.4961557946,186343.9923075181,04/11/2021
Redbridge Central Library,Clements Road,Ilford,,Redbridge,,100023043071.0,E09000026,Ilford Town,E05011246,0.0753281013182245,51.55806438964066,543962.960980725,186393.92228495312,04/11/2021
Upminster Library,Corbets Tey Road,Upminster,,Havering,,100023215782.0,E09000016,Upminster,E05000323,0.2481217868387063,51.55515048342357,555950.1176925879,186423.90225828148,04/11/2021
Stoke Newington Library,Stoke Newington Church Street,,,Hackney,,100023154905.0,E09000012,Clissold,E05009369,-0.0827958241165067,51.561618902981415,532991.9639629127,186489.92226024,04/11/2021
Valence,Becontree Avenue,Dagenham,,Barking and Dagenham,,100002559.0,E09000002,Valence,E05000040,0.1338671341018102,51.55857898754098,548018.9598799705,186567.92223930883,04/11/2021
Goodmayes Library,Goodmayes Lane,Ilford,,Redbridge,,100023050383.0,E09000026,Mayfield,E05011248,0.1089911895134916,51.55940253279035,546292.0603260266,186609.5021829428,04/11/2021
Highgate Library,Chester Road,,,Camden,,5090720.0,E09000007,Highgate,E05000137,-0.1440680527613475,51.56377376316141,528738.965122946,186619.9222251962,04/11/2021
Clapton Library,Northwold Road,,,Hackney,,100023005817.0,E09000012,Cazenove,E05009368,-0.0599268597729027,51.562667454924,534573.9635327441,186648.37216786089,04/11/2021
N4 Library,Blackstock Road,,,Islington,,10001298318.0,E09000019,Highbury West,E05000373,-0.1035224305613082,51.5638356376294,531548.964357424,186698.92220264528,04/11/2021
Archway Library,Highgate Hill,,,Islington,,10012791132.0,E09000019,Junction,E05000376,-0.1356072410226237,51.5656809911148,529319.9649653056,186846.9221647732,04/11/2021
Aldersbrook Library,Park Road,,,Redbridge,,100023583395.0,E09000026,Wanstead Park,E05011254,0.0330062700843924,51.563364969947735,541012.9617837111,186900.92214932176,04/11/2021
Preston,Carlton Avenue East,Wembley,,Brent,,202120286.0,E09000005,Preston,E05000097,-0.2957421058530939,51.57019251358885,518209.9679827304,187077.92210020788,04/11/2021
Ruislip Manor Library,Linden Avenue,Ruislip,,Hillingdon,,10022800920.0,E09000017,Manor,E05000334,-0.4115254907019274,51.57232895267138,510180.9701678706,187134.92208450052,04/11/2021
Seven Kings Library,High Road,Ilford,,Redbridge,,10034922466.0,E09000026,Seven Kings,E05011251,0.0998587318972002,51.56475899337209,545641.9605251472,187186.92207185025,04/11/2021
Leytonstone Library,Church Lane,Leytonstone,,Waltham Forest,,100023583898.0,E09000031,Leytonstone,E05000605,0.0103788339532846,51.568170573122345,539429.9622143274,187391.922015331,04/11/2021
Woodberry Down Library,Kayani Avenue,,,Hackney,,10008328988.0,E09000012,Woodberry Down,E05009387,-0.0913483088444412,51.57008746898808,532374.6140948285,187416.1219591048,04/11/2021
Hornchurch Library,North Street,Hornchurch,,Havering,,100023516053.0,E09000016,St. Andrew's,E05000320,0.2205785126327807,51.564898098469165,554007.9882177925,187449.48199579932,04/11/2021
Stamford Hill Library,Portland Avenue,,,Hackney,,100023159219.0,E09000012,Springfield,E05009383,-0.0724134935241336,51.57036926480263,533685.963773596,187481.92199082312,04/11/2021
Lea Bridge Library,Lea Bridge Road,Leyton,,Waltham Forest,,200001422209.0,E09000031,Lea Bridge,E05000603,-0.0234929182973662,51.570706592610165,537074.9628544527,187609.92195627216,04/11/2021
Manor Farm Library,Bury Street,Ruislip,,Hillingdon,,100023034184.0,E09000017,Eastcote and East Ruislip,E05000329,-0.428429853947923,51.57799691077901,508995.9704895903,187739.92192139907,04/11/2021
Golders Green ,Golders Green Road,,,Barnet,,200049056.0,E09000003,Childs Hill,E05000045,-0.2017551332132488,51.57475828272255,524710.7162152786,187741.55192386775,04/11/2021
Eastcote Library,Field End Road,Ruislip,,Hillingdon,,100023034643.0,E09000017,Eastcote and East Ruislip,E05000329,-0.4005731670311171,51.58037027563353,510920.3799408578,188045.68178487167,04/11/2021
Robert Jeyes Community Library,High Road,Chadwell Heath,,Barking and Dagenham,,100101901.0,E09000002,Whalebone,E05000042,0.1430250081148558,51.57262997285906,548607.9597190745,188148.92180816756,04/11/2021
Stroud Green and Harringay Library,Stapleton Hall Road,,,Haringey,,100023191010.0,E09000014,Stroud Green,E05000279,-0.106386859510426,51.57755056141545,531310.9644191521,188218.9217888897,04/11/2021
Hornsey Library,Haringey Park,,,Haringey,,10022939468.0,E09000014,Crouch End,E05000269,-0.1219153459834166,51.57826789543128,530232.9647139233,188270.9217756732,04/11/2021
Wanstead Library,Spratt Hall Road,,,Redbridge,,100022960264.0,E09000026,Wanstead Village,E05011255,0.0252954407203949,51.57589019959666,540439.961938011,188278.9217756636,04/11/2021
Gayton,St Johns Road,Harrow,,Harrow,,10070263324.0,E09000015,Greenhill,E05000288,-0.3317656452636937,51.58168300773092,515684.36863279,188298.2217566137,04/11/2021
Keith Axon Library,Grove Road,Romford,,Redbridge,,10090503264.0,E09000026,Chadwell,E05011237,0.1213180697291971,51.57438378211518,547098.1700917674,188300.13172967584,04/11/2021
Gants Hill Library,Cranbrook Road,Ilford,,Redbridge,,10034912233.0,E09000026,Barkingside,E05011235,0.0700710597468937,51.57763552083947,543536.9610972314,188559.92169720397,04/11/2021
St Ann's Library,Cissbury Road,,,Haringey,,100023153820.0,E09000014,St. Ann's,E05000277,-0.0829657752894909,51.58091977089422,532923.963985097,188635.9216774724,04/11/2021
Kingsbury,Kingsbury Road,,,Brent,,202078174.0,E09000005,Queensbury,E05000099,-0.2764266705296596,51.5860247490464,519506.9676326654,188869.92161471304,04/11/2021
Garden Suburb Community Library ,Falloden Way,,,Barnet,,200207760.0,E09000003,Garden Suburb,E05000052,-0.1833195725422058,51.586304110042256,525956.2558534791,189057.09154569145,04/11/2021
Gidea Park Library,Balgores Lane,Romford,,Havering,,100023216148.0,E09000016,Squirrel's Heath,E05000322,0.2059126995103548,51.58000018263768,552940.9385220773,189098.02152590308,04/11/2021
Romford Central Library,St Edwards Way,Romford,,Havering,,100023211636.0,E09000016,Romford Town,E05000319,0.1835201474670183,51.58077921154194,551386.9189249516,189138.0415365688,04/11/2021
Walthamstow Library,High Street,Walthamstow,,Waltham Forest,,100022983155.0,E09000031,High Street,E05000599,-0.0210337045283965,51.58447765565975,537203.9628188399,189145.92153727583,04/11/2021
Hendon,The Burroughs,,,Barnet,,200222812.0,E09000003,Hendon,E05000055,-0.2289328300641518,51.5885938480336,522790.1467290656,189234.13147476403,04/11/2021
Pinner,Marsh Road,Pinner,,Harrow,,100023037203.0,E09000015,Pinner South,E05000298,-0.3804714047767071,51.59139964226058,512285.9495714757,189302.85148582672,04/11/2021
Marcus Garvey Library,Philip Lane,,,Haringey,,100023153172.0,E09000014,Tottenham Green,E05000280,-0.0740276283395375,51.58818308651272,533521.9638208551,189459.9214515501,04/11/2021
Kenton,Kenton Lane,Harrow,,Harrow,,200000313248.0,E09000015,Kenton West,E05000295,-0.3112442428550126,51.592645333945576,517077.9682900391,189549.9214294238,04/11/2021
Marks Gate,Rose Lane,Chadwell Heath,,Barking and Dagenham,,10002167212.0,E09000002,Chadwell Heath,E05000029,0.1359034367682291,51.5854127447456,548072.9598618579,189555.92142829008,04/11/2021
Muswell Hill Library,Queens Avenue,,,Haringey,,100023143844.0,E09000014,Fortis Green,E05000270,-0.1433723356327491,51.591126776373095,528709.9651284715,189662.92139858825,04/11/2021
Wealdstone,High Street,Harrow,,Harrow,,200004437046.0,E09000015,Marlborough,E05000296,-0.3349384779612847,51.5941439993017,515432.9687362313,189678.9213911352,04/11/2021
Clayhall Library,Claybury Broadway,Ilford,,Redbridge,,100023051395.0,E09000026,Clayhall,E05011239,0.0494534482609713,51.59029945323227,542068.9614973095,189927.92132458632,04/11/2021
East Finchley,High Road,,,Barnet,,200061457.0,E09000003,East Finchley,E05000049,-0.1675539832828571,51.59392340077762,527027.1755489303,189931.66131304204,04/11/2021
Wood Street Library,Forest Road,Walthamstow,,Waltham Forest,,200001418727.0,E09000031,Wood Street,E05000609,-0.0044410889654585,51.59156124219536,538331.9625146451,189964.92131395807,04/11/2021
Wood Green Central Library and Customer Services,High Road,,,Haringey,,100023178365.0,E09000014,Noel Park,E05000275,-0.1096391072980637,51.595524986872,531033.9644975793,190211.9212488109,04/11/2021
Fullwell Cross Library,High Street,Ilford,,Redbridge,,10013585783.0,E09000026,Fairlop,E05011242,0.0852888790528536,51.5932023725643,544541.960824758,190320.92121754307,04/11/2021
Higham Hill Library,North Countess Road,Walthamstow,,Waltham Forest,,100022981657.0,E09000031,Higham Hill,E05000600,-0.0274737318568816,51.59578142718853,536723.9629505766,190390.92119993613,04/11/2021
Northwood Hills Library,Potter Street,Northwood,,Hillingdon,,100023037608.0,E09000017,Northwood Hills,E05000336,-0.4082816628084901,51.60279660003646,510331.9701250236,190527.9211628979,04/11/2021
Alexandra Park Library,Alexandra Park Road,,,Haringey,,100023179968.0,E09000014,Alexandra,E05000266,-0.1367914376039916,51.59883690935676,529143.9650108692,190531.92116270924,04/11/2021
Church End ,Hendon Lane,,,Barnet,,200218220.0,E09000003,Finchley Church End,E05000051,-0.1972723602660861,51.59982497358951,524952.5561150208,190536.72114771453,04/11/2021
Harefield Library,Park Lane,Harefield,,Hillingdon,,100023564754.0,E09000017,Harefield,E05000330,-0.4829261093893708,51.604396061932064,505158.97153295967,190595.92114358128,04/11/2021
South Woodford Library and Gym,High Road,,,Redbridge,,10034922615.0,E09000026,Churchfields,E05011238,0.021970298008569,51.59713387618441,540144.2620074219,190634.92113291196,04/11/2021
Colindale,The Concourse,,,Barnet,,200222825.0,E09000003,Colindale,E05000046,-0.2450508212338281,51.60179285815856,521638.427010568,190675.04111665767,04/11/2021
South Friern ,Colney Hatch Lane,,,Barnet,,200147125.0,E09000003,Coppetts,E05000047,-0.1485176537689312,51.6004365900837,528327.3452377416,190689.1810689537,04/11/2021
Harold Wood Library,Arundel Road,Romford,,Havering,,100023216526.0,E09000016,Harold Wood,E05000312,0.2354828726423254,51.59452600712589,554940.2579825252,190775.52106957888,04/11/2021
Burnt Oak ,Watling Avenue,Edgware,,Barnet,,200155264.0,E09000003,Burnt Oak,E05000044,-0.2632091442870116,51.60326488366086,520377.0773770541,190808.76105195077,04/11/2021
Collier Row Library,Collier Row Road,Romford,,Havering,,100023217675.0,E09000016,Mawneys,E05000316,0.1608671085323631,51.59847359803534,549759.319392277,191059.02099453227,04/11/2021
Coombes Croft Library,High Road,,,Haringey,,100023165934.0,E09000014,Northumberland Park,E05000276,-0.068289983535064,51.603654597659336,533873.9637240175,191190.92098362453,04/11/2021
Northwood Library,Green Lane,Northwood,,Hillingdon,,100023564110.0,E09000017,Northwood,E05000335,-0.4248318998403248,51.61233586097772,509162.9704437541,191563.9208808549,04/11/2021
Woodford Green Library,Snakes Lane West,Woodford Green,,Redbridge,,200001843478.0,E09000026,Monkhams,E05011249,0.0323525269802545,51.607592878282624,540830.961832603,191817.9208102584,04/11/2021
Hale End Library,Castle Avenue,Chingford,,Waltham Forest,,100023583807.0,E09000031,Hatch Lane,E05000598,0.0011703318205988,51.60920763760316,538666.9624197654,191937.9207797493,04/11/2021
Hainault Library,Manford Way,Chigwell,,Redbridge,,10034923013.0,E09000026,Hainault,E05011245,0.1041566092527724,51.608042910469216,545801.2604696434,192008.6207126174,04/11/2021
Friern Barnet Community Library ,Friern Barnet Road,,,Barnet,,200044867.0,E09000003,Coppetts,E05000047,-0.1534252743039362,51.61353766628043,527950.665283752,192137.4907320519,04/11/2021
Fore Street,Fore Street,Edmonton,,Enfield,,207015248.0,E09000010,Upper Edmonton,E05000212,-0.0652999825619611,51.61216617906342,534055.963674035,192142.92072236488,04/11/2021
Mill Hill ,Hartley Avenue,,,Barnet,,200057669.0,E09000003,Mill Hill,E05000057,-0.243063381030153,51.61538873453429,521739.75700235774,192190.3106655561,04/11/2021
Harold Hill Library,Hilldene Avenue,Romford,,Havering,,100023217029.0,E09000016,Gooshays,E05000310,0.2184294913630692,51.60773918983373,553714.5283395206,192208.78068897827,04/11/2021
Edgware ,Hale Lane,Edgware,,Barnet,,200220766.0,E09000003,Edgware,E05000050,-0.2739981599310401,51.61627530733272,519595.8376027249,192237.94065433816,04/11/2021
Angel Raynham,Raynham Avenue,Edmonton,,Enfield,,207017246.0,E09000010,Upper Edmonton,E05000212,-0.0609707767614719,51.61309285401557,534352.9635940455,192253.920692022,04/11/2021
Bowes Road,Bowes Road,Southgate,,Enfield,,207045509.0,E09000010,Southgate Green,E05000209,-0.1306232842221394,51.61542867912643,529523.9649076755,192387.92065602556,04/11/2021
Stanmore,Stanmore Hill,Stanmore,,Harrow,,100023038856.0,E09000015,Stanmore Park,E05000303,-0.311630032331282,51.61843241840572,516984.9683166025,192416.92064822093,04/11/2021
Palmers Green,Green Lanes,Southgate,,Enfield,,207015887.0,E09000010,Palmers Green,E05000205,-0.1105984235697038,51.61558446405062,530909.8745036832,192440.9106330781,04/11/2021
Millfield House,Silver Street,Edmonton,,Enfield,,207180891.0,E09000010,Haselbury,E05000201,-0.0813273252402187,51.61639525362264,532933.9639776367,192583.92060183556,04/11/2021
North Finchley ,Ravensdale Avenue,,,Barnet,,200097082.0,E09000003,Woodhouse,E05000063,-0.1758910630451006,51.61857502898837,526381.2957160017,192658.60057504495,04/11/2021
South Chingford Community Library,Chingford Mount Road,Chingford,,Waltham Forest,,100023000149.0,E09000031,Valley,E05000607,-0.0177739703318137,51.61659733233112,537332.9627826827,192723.9205645385,04/11/2021
Edmonton Green,South Mall,Edmonton,,Enfield,,207189578.0,E09000010,Edmonton Green,E05000197,-0.0580540230935141,51.6238986794405,534522.9635479609,193460.9203638457,04/11/2021
Winchmore Hill,Green Lanes,Southgate,,Enfield,,207036897.0,E09000010,Winchmore Hill,E05000213,-0.0984182797093767,51.628408772417245,531715.964310097,193888.9202490981,04/11/2021
Osidge,Brunswick Park Road,,,Barnet,,200140830.0,E09000003,Brunswick Park,E05000043,-0.1490403331332565,51.63031909840533,528206.9552548409,194011.36021925847,04/11/2021
Southgate Circus,High Street,Southgate,,Enfield,,207180633.0,E09000010,Southgate,E05000208,-0.1283170253575652,51.630391187207735,529640.9648730215,194055.92020325465,04/11/2021
North Chingford Library,The Green,Chingford,,Waltham Forest,,100022999962.0,E09000031,Chingford Green,E05000593,0.0028661606059374,51.63165101806859,538715.9624057417,194436.9200999117,04/11/2021
Ridge Avenue,Ridge Avenue,Southgate,,Enfield,,207111058.0,E09000010,Bush Hill Park,E05000194,-0.0819509549247652,51.63618000820498,532832.9640089383,194782.92000459865,04/11/2021
East Barnet ,Brookhill Road,Barnet,,Barnet,,200016111.0,E09000003,East Barnet,E05000048,-0.1614838902777277,51.644387780678365,527306.3854929997,195554.129755746,04/11/2021
John Jackson,Agricola Place,Enfield,,Enfield,,207040251.0,E09000010,Southbury,E05000207,-0.0664989077597998,51.64543171276157,533874.9637248865,195839.91971915564,04/11/2021
Ponders End,High Street,Enfield,,Enfield,,207000261.0,E09000010,Ponders End,E05000206,-0.0475440580904492,51.64522561100319,535186.9633704567,195851.91971481888,04/11/2021
Oakwood,Bramley Road,Southgate,,Enfield,,207148238.0,E09000010,Cockfosters,E05000196,-0.1291470541545472,51.64883882246553,529530.9649072589,196105.9196467304,04/11/2021
Enfield Town,Church Street,Enfield,,Enfield,,207011262.0,E09000010,Grange,E05000200,-0.0862106043565995,51.6516897310957,532492.9641002616,196499.91953893803,04/11/2021
Chipping Barnet ,Stapylton Road,Barnet,,Barnet,,200107378.0,E09000003,High Barnet,E05000056,-0.2047442866988839,51.65615432173563,524281.21633110114,196788.17940987693,04/11/2021
Enfield Highway,Hertford Road,Enfield,,Enfield,,207035798.0,E09000010,Enfield Highway,E05000198,-0.0474609642402147,51.65892898754715,535151.9633789391,197375.91930263257,04/11/2021
Enfield Island Village,Island Centre Way,Enfield,,Enfield,,207193973.0,E09000010,Enfield Lock,E05000199,-0.0164371584049882,51.668444150370775,537268.9628018226,198491.9189969304,04/11/2021
Ordnance Unity Centre,Hertford Road,Enfield,,Enfield,,207144176.0,E09000010,Enfield Lock,E05000199,-0.0393174186059332,51.67207504429106,535675.9632324667,198852.91889920985,04/11/2021
Bullsmoor,Kempe Road,Enfield,,Enfield,,207178047.0,E09000010,Turkey Street,E05000211,-0.0494860073898663,51.67641691312967,534959.9634279982,199316.9187724736,04/11/2021
West Norwood Library and Picturehouse,1-7 Norwood High St,,,Lambeth,,10000446790.0,E09000022,Knight's Hill,E05000424,-0.1040911817287714,51.43280264110468,531886.9642649955,172126.9261614668,04/11/2021
