name,address1,address2,address3,borough_name,website,os_addressbase_uprn,borough_code,ward_2018_name,ward_2018_code,longitude,latitude,easting,northing,runtime
Museum of Croydon,Central Library,Croydon Clocktower,Katharine Street,Croydon,http://www.museumofcroydon.com/,100022917682.0,E09000008,Fairfield,E05011468,-0.0995104525480366,51.371910542400165,532380.9641287995,165363.9280014406,04/11/2021
Museum of Writing,c/o Institute of English Studies,University of London Senate House,Malet Street,Camden,http://www.museumofwriting.co.uk/,5016035.0,E09000007,Bloomsbury,E05000129,-0.1286980226587545,51.520643623813584,529926.9647969569,181850.92352089816,04/11/2021
The Foundling Museum,40 Brunswick Square,,,Camden,http://www.foundlingmuseum.org.uk/,5002560.0,E09000007,King's Cross,E05000141,-0.1216462226262959,51.5252701073732,530402.964669417,182377.92337760224,04/11/2021
Freud Museum,20 Maresfield Gardens,,,Camden,https://www.freud.org.uk/,5012934.0,E09000007,Frognal and Fitzjohns,E05000133,-0.1772463534350873,51.54842188893095,526481.9657331806,184854.9227054417,04/11/2021
Keats House,10 Keats Grove,Hampstead,,Camden,http://www.cityoflondon.gov.uk/keats,5015415.0,E09000007,Hampstead Town,E05000135,-0.1679301779810725,51.555569760606815,527107.9655625345,185665.92248556585,04/11/2021
British Museum,Great Russell Street,,,Camden,http://www.britishmuseum.org/,5027059.0,E09000007,Bloomsbury,E05000129,-0.126474755677237,51.51897146111293,530085.964753409,181668.9235696554,04/11/2021
2 Willow Road,Hampstead,,,Camden,https://www.nationaltrust.org.uk/2-willow-road,5032722.0,E09000007,Hampstead Town,E05000135,-0.1691501015670745,51.557162489166295,527018.9655857261,185840.92243757483,04/11/2021
British Library,96 Euston Road London,NW1 2DBÂ ,,Camden,http://www.bl.uk/,5037737.0,E09000007,St. Pancras and Somers Town,E05000143,-0.1269883546281268,51.52998677143432,530018.9647743074,182892.9232379205,04/11/2021
Burgh House and Hampstead Museum,New End Square,Hampstead,,Camden,www.burghhouse.org.uk/,5067420.0,E09000007,Hampstead Town,E05000135,-0.1750673392693131,51.55818089976963,526605.9656982652,185943.92240836265,04/11/2021
Royal College of Physicians of London Museum,Library Archive and Museum Services,11 St Andrews Place,RegentÃ¢ÂÂs Park,Camden,http://www.rcplondon.ac.uk/museum-and-garden,5069347.0,E09000007,Regent's Park,E05000142,-0.1449807444509275,51.525749292122754,528782.9651070784,182389.9233741672,04/11/2021
"Jewish Museum, London",Raymond Burton Hs,129-131 Albert Street,,Camden,http://www.jewishmuseum.org.uk/,5082327.0,E09000007,Camden Town with Primrose Hill,E05000130,-0.1446414661462595,51.53728156162264,528773.9651113618,183672.9230259779,04/11/2021
Wellcome Collection,183 Euston Road,,,Camden,http://www.wellcomecollection.org/,5083806.0,E09000007,Bloomsbury,E05000129,-0.133917453186942,51.525897574673365,529549.9649010886,182425.92336672544,04/11/2021
Government Art Collection,Queen's Yard,179a Tottenham Court Rd,,Camden,www.gac.culture.gov.uk/,5087928.0,E09000007,Bloomsbury,E05000129,-0.1349011106548484,51.52228915117114,529491.9649153412,182022.92347552377,04/11/2021
The British Museum,Great Russell Street,,,Camden,http://www.britishmuseum.org/,5090682.0,E09000007,Bloomsbury,E05000129,-0.1268478187088248,51.51936410624359,530058.9647608323,181711.92355810787,04/11/2021
Fenton House,Hampstead Grove,Hampstead,,Camden,https://www.nationaltrust.org.uk/fenton-house-and-garden,5126160.0,E09000007,Hampstead Town,E05000135,-0.1801305452655582,51.55891599474092,526252.9657949564,186016.9223874793,04/11/2021
Sir John SoaneÃÂ¼s Museum,13 LincolnÃ¢ÂÂs Inn Fields,,,Camden,http://www.soane.org/,5137612.0,E09000007,Holborn and Covent Garden,E05000138,-0.1175187122254291,51.51699356555784,530712.9645834898,181464.92362379425,04/11/2021
"Ben Uri Gallery, The Art Museum for Everyone, The London Jewish Museum of Art",108A Boundary Road,off Abbey Rd,St JohnÃ¢ÂÂs Wood,Camden,www.benuri.org.uk,5144462.0,E09000007,Kilburn,E05000140,-0.1853670788630233,51.53754080201588,525948.965876383,183630.9230354161,04/11/2021
"Grant Museum of Zoology and Comparative Anatomy, UCL",21 University Street,,,Camden,https://www.ucl.ac.uk/culture/grant-museum-zoology,5157295.0,E09000007,Bloomsbury,E05000129,-0.1346590924596637,51.52362521809698,529504.964912415,182171.92343539704,04/11/2021
Petrie Museum of Egyptian Archaeology,University College London,Malet Place,,Camden,http://www.culture24.org.uk/se000386,5157395.0,E09000007,Bloomsbury,E05000129,-0.1324938164167597,51.52404940079717,529653.9648722006,182222.92342130176,04/11/2021
"Geology (and Teaching & Research) Collections, UCL",Rock Room,"Room 4, First Floor",South Wing,Camden,https://www.ucl.ac.uk/culture/geology-collection,5157402.0,E09000007,Bloomsbury,E05000129,-0.1334575667464928,51.52410070818476,529586.9648903898,182226.9234203905,04/11/2021
UCL Art Museum,South Cloisters,UCL,,Camden,http://www.ucl.ac.uk/museums/uclart,5157412.0,E09000007,Bloomsbury,E05000129,-0.1332681446635311,51.52450236674428,529598.9648873068,182271.9234082466,04/11/2021
Crystal Palace Museum,Anerley Hill,,,Bromley,www.crystalpalacemuseum.org.uk/,100023247277.0,E09000006,Crystal Palace,E05000116,-0.0766990300834122,51.41977512368729,533828.9637365837,170727.92654295347,04/11/2021
Cartoon Museum,35 Little Russell Street,,,Camden,http://www.cartoonmuseum.org/,5158052.0,E09000007,Holborn and Covent Garden,E05000138,-0.1260229979566488,51.51768727604571,530120.9647435427,181526.92360788875,04/11/2021
Central Saint Martins,Granary Building,1 Granary Square,Kings Cross,Camden,www.arts.ac.uk/csm/,5171310.0,E09000007,St. Pancras and Somers Town,E05000143,-0.124459502902146,51.53643912724865,530175.9647308534,183614.92304057223,04/11/2021
House of Illustration,2 Granary Square King's Cross London,,,Camden,http://www.houseofillustration.org.uk/,5188521.0,E09000007,St. Pancras and Somers Town,E05000143,-0.124459502902146,51.53643912724865,530175.9647308534,183614.92304057223,04/11/2021
V&A Museum of Childhood,Cambridge Heath Road,,,Tower Hamlets,http://www.museumofchildhood.org.uk/,6039165.0,E09000030,Bethnal Green,E05009317,-0.0548819534182295,51.52905531229992,535022.9634149643,182919.92323003896,04/11/2021
Ragged School Museum,46-50 Copperfield Road,,,Tower Hamlets,http://www.raggedschoolmuseum.org.uk/,6048400.0,E09000030,Mile End,E05009327,-0.035664072205294,51.51866342706555,536386.963043386,181799.92353591527,04/11/2021
The Tower of London,St Katharine's & Wapping,London,,Tower Hamlets,www.âhrp.âorg.âuk/âTowerOfLondon/â,6086565.0,E09000030,St. Katharine's & Wapping,E05009330,-0.0762455120409141,51.50827523006401,533601.9637975731,180569.9238673529,04/11/2021
"Royal Armouries, Tower of London",HM Tower Of London,St Katharine's & Wapping,,Tower Hamlets,https://royalarmouries.org/visit-us/tower-of-london,6086565.0,E09000030,St. Katharine's & Wapping,E05009330,-0.0762455120409141,51.50827523006401,533601.9637975731,180569.9238673529,04/11/2021
The Fusilier Museum London,HM Tower of London,35 Tower Hill,St Katharine's & Wapping,Tower Hamlets,www.âfusiliermuseumlondon.âorg,6086845.0,E09000030,St. Katharine's & Wapping,E05009330,-0.0751885611573581,51.50839276466558,533674.9637775717,180584.92386318863,04/11/2021
Royal London Hospital Archives and Museum,Church of St Augustine with St Philip,Newark Street,,Tower Hamlets,,6118397.0,E09000030,Whitechapel,E05009336,-0.0604584893033538,51.51725954515276,534670.9635063211,181597.92359038812,04/11/2021
Museum of the Royal Pharmaceutical Society,1 Lambeth High Street,,,Tower Hamlets,www.ârpsgb.âorg/âmuseum,6136082.0,E09000030,Whitechapel,E05009336,-0.0682710819307461,51.50907928843063,534152.9636467223,180673.92383846024,04/11/2021
Museum of London Docklands,No. 1 Warehouse,West India Quay,,Tower Hamlets,http://www.museumoflondon.org.uk/docklands,6151122.0,E09000030,Canary Wharf,E05009323,-0.0238327003729596,51.50761933319317,537240.9628112616,180593.9238607176,04/11/2021
Trades Union Congress (TUC) Library Collections,Special Collections  London Metropolitan University,Wash Houses,Old Castle Street,Tower Hamlets,http://www.londonmet.ac.uk/tuc,6151239.0,E09000030,Spitalfields & Banglatown,E05009333,-0.0739980253616555,51.51577420253457,533735.963761032,181407.923642873,04/11/2021
Kelmscott House,26 Upper Mall,Hammersmith,,Hammersmith and Fulham,http://www.culture24.org.uk/se000423,34008094.0,E09000013,Ravenscourt Park,E05000261,-0.235504364388356,51.490581788342375,522597.96678886766,178323.9244799068,04/11/2021
Fulham Palace,Fulham Palace,Bishop's Ave,Fulham,Hammersmith and Fulham,www.fulhampalace.org/,34022825.0,E09000013,Palace Riverside,E05000259,-0.2151977038737725,51.47054466539842,524061.96639213513,176129.92507687438,04/11/2021
Wandle Industrial Museum,The Vestry Hall Annexe,London Road,Mitcham,Merton,http://www.wandle.org/,48083242.0,E09000024,Cricket Green,E05000458,-0.1680386681606487,51.40227250905107,527526.9654491642,168618.92711560632,04/11/2021
Museum of Wimbledon,22 Ridgway,Wimbledon,,Merton,http://www.wimbledonmuseum.org.uk/,48107954.0,E09000024,Village,E05000472,-0.216643417008084,51.42335474484919,524089.2663699552,170879.9265017315,04/11/2021
Wimbledon Lawn Tennis Museum,The All England Lawn Tennis Club,Church Road,Wimbledon,Merton,http://www.wimbledon.com/museum,48129052.0,E09000024,Village,E05000472,-0.2140286805745762,51.433719563950575,524242.9663421677,172036.926185578,04/11/2021
Barts Pathology Museum,3rd Floor,Robin Brook Centre  St Bartholomew's Hospital,West Smithfield,City and County of the City of London,www.qmul.ac.uk/pathologymuseum/,95512892.0,E09000001,Farringdon Without,E05009305,-0.1010176259615723,51.51764757892781,531855.9142228458,181567.22358538484,04/11/2021
St Bartholomews Hospital Museum,North Wing,St BartholomewÃ¢ÂÂs Hospital,West Smithfield,City and County of the City of London,https://www.bartshealth.nhs.uk/st-bartholomews-museum-and-archives,95512892.0,E09000001,Farringdon Without,E05009305,-0.1010176259615723,51.51764757892781,531855.9142228458,181567.22358538484,04/11/2021
Valence House Museum,Becontree Ave,,,Barking and Dagenham,www.âlbbd.âgov.âuk/âheritage,100002560.0,E09000002,Valence,E05000040,0.1342008960089666,51.55831213259783,548042.9598733315,186538.9222471987,04/11/2021
Dorich House Museum,Kingston University,67 Kingston Vale,,Kingston upon Thames,https://www.dorichhousemuseum.org.uk/,128010892.0,E09000021,Coombe Hill,E05000406,-0.2630882903421483,51.43334145927384,520833.96727172297,171912.92622145644,04/11/2021
Kingston Museum (and Heritage Service),W6 9TA,,,Kingston upon Thames,http://www.kingston.gov.uk/museum,128019799.0,E09000021,Grove,E05000408,-0.300284623055324,51.40955345453804,518309.9679553628,169206.9269558115,04/11/2021
The Stephens Collection,Avenue House,East End Road,Finchley,Barnet,http://www.london-northwest.com/sites/stephens,200035687.0,E09000003,Finchley Church End,E05000051,-0.1945731350116018,51.59660246677116,525148.3461021475,190182.981254336,04/11/2021
Royal Air Force Museum London (RAF),Grahame Park Way,Hendon,,Barnet,http://www.rafmuseum.org/,200049886.0,E09000003,Colindale,E05000046,-0.2381638996147206,51.59894703218979,522122.9669182169,190370.02118048567,04/11/2021
Barnet Museum (and Local History Society),31 Wood Street,Barnet,Hertfordshire,Barnet,www.barnetmuseum.co.uk,200128241.0,E09000003,Underhill,E05000060,-0.2022962598888733,51.652876541433066,524459.5062610903,196427.8395408899,04/11/2021
Museum of Domestic Design and Architecture,Middlesex University,9 Boulevard Drive,Beaufort Park,Barnet,http://www.culture24.org.uk/se000059,200141133.0,E09000003,Colindale,E05000046,-0.2419118573566134,51.59611571743892,521870.9669865351,190048.9212921576,04/11/2021
Brent Museum,Willesden Library Centre,95 High Rd,,Brent,https://www.brent.gov.uk/museum,202149110.0,E09000005,Willesden Green,E05000105,-0.2289214989831069,51.5466504009109,522903.9667075057,184569.92278124887,04/11/2021
Enfield Museum Service,Enfield Museum,The Dugdale Centre Thomas Hardy House,39 London Road,Enfield,http://www.enfield.gov.uk/museum,207007119.0,E09000010,Grange,E05000200,-0.0811181657507618,51.65031765779333,532849.2439714298,196356.57955065247,04/11/2021
ClockmakersÃÂ¼ Museum,Exhibition Road,Kensington,,Kensington and Chelsea,http://www.clockmakers.org/,217031151.0,E09000020,Brompton & Hans Town,E05009389,-0.1764927429098897,51.49729595478951,526675.9656802487,179170.92424946552,04/11/2021
Leighton House Museum,12 Holland Park Road,,,Kensington and Chelsea,http://http/www.rbkc.gov.uk/subsites/museums.aspx,217039506.0,E09000020,Holland,E05009397,-0.2030951329530734,51.49858781711903,524825.9661831937,179268.92422472674,04/11/2021
Design Museum,224-238 Kensington High Street (Holland Park),,,Kensington and Chelsea,http://designmuseum.org/,217044656.0,E09000020,Holland,E05009397,-0.2001590262304105,51.499874429782615,525026.2360868902,179417.00414055696,04/11/2021
Kensington Palace (State Apartments and Royal Ceremonial Dress Collection),Kensington Palace/Palace Green,,,Kensington and Chelsea,http://www.hrp.org.uk%0Bwww.kensingtonpalace@hrp.org.uk/,217064431.0,E09000020,Campden,E05009390,-0.1880218160272405,51.50519933678273,525853.9659032915,180029.92401525192,04/11/2021
National Army Museum,Royal Hospital Road,Chelsea,,Kensington and Chelsea,http://www.nam.ac.uk/,217075883.0,E09000020,Royal Hospital,E05009403,-0.1603374362820255,51.48622896837952,527828.2353261601,177968.31452859243,04/11/2021
British Architectural Library Ã¢ÂÂ Drawings and Archives Collections,Victoria and Albert Museum,Cromwell Road,Knightsbridge,Kensington and Chelsea,https://www.architecture.com/about/riba-library-and-collections,217108016.0,E09000020,Brompton & Hans Town,E05009389,-0.1720980312574836,51.496902279557766,526982.0956020028,179134.75421592017,04/11/2021
Natural History Museum,Cromwell Road,,,Kensington and Chelsea,http://www.nhm.ac.uk/,217108017.0,E09000020,Brompton & Hans Town,E05009389,-0.1768677198049701,51.49656438426556,526651.9656865967,179088.9242716566,04/11/2021
CarlyleÃ¢ÂÂs House,24 Cheyne Row,,,Kensington and Chelsea,https://www.nationaltrust.org.uk/carlyles-house,217110505.0,E09000020,Chelsea Riverside,E05009391,-0.1697012548204129,51.48413279987495,527183.9655412731,177718.9246424901,04/11/2021
The Science Museum,Exhibition Rd,Kensington,,Kensington and Chelsea,https://www.sciencemuseum.org.uk/,217118723.0,E09000020,Brompton & Hans Town,E05009389,-0.1764927429098897,51.49729595478951,526675.9656802487,179170.92424946552,04/11/2021
Victoria and Albert Museum,Cromwell Road,South Kensington,,Kensington and Chelsea,http://www.vam.ac.uk/,217119925.0,E09000020,Brompton & Hans Town,E05009389,-0.1722005401263,51.49694362519143,526974.8655624735,179139.17425870366,04/11/2021
The Estorick Collection of Modern Italian Art,39A Canonbury Square,,,Islington,www.âestorickcollection.âcom,5300016244.0,E09000019,St. Mary's,E05000379,-0.1005735281753977,51.54387833128418,531810.9642835463,184484.9228055665,04/11/2021
John WesleyÃÂ¼s House and The Museum of Methodism,Wesley's Chapel,49 City Road,,Islington,http://www.culture24.org.uk/se000445,5300019876.0,E09000019,Bunhill,E05000367,-0.0870460132709367,51.52358674075504,532807.9640127942,182252.92341210903,04/11/2021
"WesleyÃ¢ÂÂs Chapel, Museum of Methodism and John WesleyÃ¢ÂÂs House",49 City Road,,,Islington,http://www.wesleychapel.org.uk/,5300019879.0,E09000019,Bunhill,E05000367,-0.0865194889186759,51.52376699404311,532843.9640028753,182273.92340630275,04/11/2021
London Canal Museum,12/13 New Wharf Road,KingÃ¢ÂÂs Cross,,Islington,http://www.canalmuseum.org.uk/,5300066428.0,E09000019,Caledonian,E05000368,-0.1202970497944743,51.534223258092666,530470.9646518101,183375.9231051242,04/11/2021
Museum of the Order of St John,St JohnÃ¢ÂÂs Gate,26 St John's Ln,,Islington,http://www.museumstjohn.org.uk/,5300085644.0,E09000019,Clerkenwell,E05000370,-0.1025111378767404,51.52192262192881,531739.9643046535,182039.9234705505,04/11/2021
Whitehall Historic House,1 Malden Road,Cheam,Surrey,Sutton,https://whitehallmuseum.wordpress.com/,5870019263.0,E09000029,Cheam,E05000560,-0.2172080653825291,51.35938066170903,524222.9663454164,163764.92843537853,04/11/2021
Little Holland House,40 Beeches Ave,Carshalton,,Sutton,http://www.sutton.gov.uk/,5870060822.0,E09000029,Carshalton South and Clockhouse,E05000559,-0.1705747235043874,51.35528014227603,527480.9654644713,163388.92853983433,04/11/2021
Honeywood Museum,Honeywood Walk,Carshalton,Surrey,Sutton,http://www.friendsofhoneywood.co.uk/,5870115967.0,E09000029,Carshalton Central,E05000558,-0.1650680962388299,51.36513123214742,527836.9653672965,164493.9282405466,04/11/2021
Tate Modern,Bankside,,,Southwark,http://www.tate.org.uk/modern,10000813334.0,E09000028,Borough & Bankside,E05011095,-0.0993733982853445,51.50761826949127,531998.9642317264,180454.923900454,04/11/2021
Fashion and Textile Museum,83 Bermondsey Street London,,,Southwark,http://www.ftmlondon.org/,10000818830.0,E09000028,London Bridge & West Bermondsey,E05011104,-0.081789177019806,51.50118091174105,533237.9638996227,179770.92408411996,04/11/2021
Musical Museum,399 High St,Brentford,,Hounslow,https://www.musicalmuseum.co.uk/,10001271544.0,E09000018,Brentford,E05000347,-0.2931329955899753,51.48790923874873,518604.26786463335,177931.9245865402,04/11/2021
Museum of Army Music,Royal Military School of Music,Kneller Hall,2 Kneller Rd,Richmond upon Thames,www.army.mod.uk Ã¢ÂÂº Corps of Army Music Ã¢ÂÂº The Royal Military School of Music,10002261149.0,E09000027,Whitton,E05000533,-0.3506546029715067,51.45510021617221,514692.9689383524,174191.92560038617,04/11/2021
Hampton Court Palace,Molesey,East Molesey,,Richmond upon Thames,https://www.hrp.org.uk/hampton-court-palace/,10002266633.0,E09000027,Hampton,E05000520,-0.3376326827358215,51.40385723305589,515726.9686594037,168513.92714681593,04/11/2021
Kew Palace,Royal Botanic Gardens Kew,Richmond,,Richmond upon Thames,https://www.hrp.org.uk/kew-palace/,10002266941.0,E09000027,Kew,E05000524,-0.2911761038764546,51.48527287453825,518746.9678367492,177641.92466493446,04/11/2021
Strawberry Hill House,268 Waldegrave Rd,Twickenham,,Richmond upon Thames,http://www.strawberryhillhouse.org.uk/,10002267260.0,E09000027,South Twickenham,E05000529,-0.3347307387665862,51.43822123808392,515841.96862354514,172339.92610407743,04/11/2021
Heath Robinson Museum,Pinner Memorial Park,West End Lane,Pinner,Harrow,www.heathrobinsonmuseum.org,10002293329.0,E09000015,Pinner South,E05000298,-0.3866705366273585,51.59247378713376,511853.9097104732,189412.80146833372,04/11/2021
Harrow Museum and Heritage Centre,Headstone Manor,Pinner View,Â Harrow,Harrow,http://www.harrow.gov.uk/info/200070/museums_and_galleries/190/harrow_museum,10002293456.0,E09000015,Headstone North,E05000292,-0.3550673273452863,51.59446394982795,514037.96911552106,189682.92139046936,04/11/2021
Hackney Museum,1 Reading Lane,,,Hackney,http://www.hackney.gov.uk/cm-museum.htm,10008313143.0,E09000012,Hackney Central,E05009372,-0.0560703076671313,51.54447929868019,534894.9634465151,184632.92276584363,04/11/2021
House Mill,Three Mill Lane,Bromley-by-Bow,,Newham,,10008997232.0,E09000025,Stratford and New Town,E05000492,-0.0075782601157145,51.5274074869819,538308.9625174318,182824.9232553488,04/11/2021
Royal Museums Greenwich,Park Row,Greenwich,,Greenwich,http://www.rmg.co.uk/,10010231322.0,E09000011,Greenwich West,E05000222,-0.0037254175813185,51.48115302295999,538716.6123730066,177688.78463617736,04/11/2021
Eltham Palace,Court Yard,,,Greenwich,http://www.english-heritage.org.uk/elthampalace,10010235842.0,E09000011,Eltham South,E05000219,0.0479413215672717,51.446984868361206,542410.2613918136,173988.37560726702,04/11/2021
National Maritime Museum,Romney Road,,,Greenwich,http://www.rmg.co.uk/national-maritime-museum#,10010243516.0,E09000011,Greenwich West,E05000222,-0.0052156387980641,51.48094088151273,538613.7824447323,177662.37460926094,04/11/2021
Charterhouse,Sutton's Hospital,Charterhouse Square,,Islington,http://www.thecharterhouse.org/,10023218636.0,E09000019,Bunhill,E05000367,-0.1000425827046513,51.52131610826995,531912.9642573192,181976.92348758347,04/11/2021
Cinema Museum,"The MasterÃ¢ÂÂs House, The Old Lambeth Workhouse",2 Dugard Way,Kennington,Lambeth,http://www.rmg.co.uk/cuttysark,10023852579.0,E09000022,Prince's,E05000427,-0.1051689114116331,51.49228045330592,531640.964330746,178738.92436423805,04/11/2021
Michael Faraday Museum at the Royal Institution,The Royal Institution,21 Albemarle Street,,City of Westminster,http://www.rigb.org/,10033528771.0,E09000033,West End,E05000649,-0.1425534379567322,51.50994667778658,528995.9650494637,180636.92385205365,04/11/2021
Tate Britain,Millbank,,,City of Westminster,http://www.tate.org.uk/britain,10033538284.0,E09000033,Vincent Square,E05000646,-0.1271809337687274,51.49087145733704,530116.9647443739,178542.92441816517,04/11/2021
The Society of Antiquaries of London - Burlington House,Burlington House,Piccadilly,Mayfair,City of Westminster,www.âsal.âorg.âuk,10033541032.0,E09000033,West End,E05000649,-0.1397494696216768,51.50873318784728,529193.9649962278,180506.92388724623,04/11/2021
Royal Academy of Arts,Burlington House,Piccadilly,,City of Westminster,http://www.royalacademy.org.uk/,10033541035.0,E09000033,West End,E05000649,-0.1395760353269532,51.509099138300215,529204.964993228,180547.923876074,04/11/2021
MCC Museum,LordÃ¢ÂÂs Ground,,,City of Westminster,http://www.lords.org/,10033543781.0,E09000033,Regent's Park,E05000643,-0.1730523711446167,51.5285458912556,526827.9656379432,182651.92330362205,04/11/2021
The Courtauld Gallery,Somerset House,Strand,,City of Westminster,http://www.courtauld.ac.uk/gallery,10033544134.0,E09000033,St. James's,E05000644,-0.117952413592408,51.511020344038265,530699.9645855693,180799.9238039521,04/11/2021
Household Cavalry Museum,Horseguards Parade,Whitehall,,City of Westminster,http://www.culture24.org.uk/se000447,10033545888.0,E09000033,St. James's,E05000644,-0.1272362269178323,51.50498193431958,530072.9647564421,180111.92399384384,04/11/2021
Royal Academy of Music Museum,1Ã¢ÂÂ5 York Gate,Marylebone Road,,City of Westminster,http://www.ram.ac.uk/museum,10033546476.0,E09000033,Marylebone High Street,E05000641,-0.1523372249235761,51.52350930177203,528278.9652427712,182127.9234446106,04/11/2021
Guards Museum,Wellington Barracks,Birdcage Walk,,City of Westminster,http://www.theguardsmuseum.com/,10033547407.0,E09000033,St. James's,E05000644,-0.1382769780544886,51.499609193336966,529321.9649596037,179494.92416181188,04/11/2021
Banqueting House Whitehall,Whitehall,,,City of Westminster,www.hrp.org.uk,10033549112.0,E09000033,St. James's,E05000644,-0.1259287437350467,51.504538392050485,530164.9647313372,180064.924006656,04/11/2021
Imperial College Healthcare Charity Art Collection at St Mary's Hospital,Ground Floor,Clarence Memorial Wing St Mary's Hospital,Praed Street,City of Westminster,,10033554476.0,E09000033,Hyde Park,E05000636,-0.1736285647723927,51.51739497979376,526818.9656417663,181410.92363871876,04/11/2021
The Wallace Collection,Hertford House,Manchester Square,,City of Westminster,http://www.wallacecollection.org/,10033582984.0,E09000033,Marylebone High Street,E05000641,-0.1528966232967588,51.51716927725117,528257.9652494196,181421.92363884437,04/11/2021
British Optical Association Museum,The College of Optometrists,41-42 Craven St,,City of Westminster,https://www.college-optometrists.org/the-college/museum.html,10033590012.0,E09000033,St. James's,E05000644,-0.1253553632534063,51.507844580195616,530195.3347183468,180433.5938880531,04/11/2021
Anaesthesia Museum,21 Portland Pl,Marylebone,,City of Westminster,https://www.aagbi.org/education/heritage-centre/anaesthesia-museum,10033598850.0,E09000033,West End,E05000649,-0.1451094103318305,51.51939349113443,528791.9651040214,181682.92356720363,04/11/2021
London Transport Museum,39 Wellington Street,,,City of Westminster,http://www.ltmuseum.co.uk/,10033620435.0,E09000033,St. James's,E05000644,-0.1212216160445445,51.512124903924615,530469.9646484905,180916.92377272592,04/11/2021
"Courtauld Gallery, University of London",Somerset House,Â Strand,,City of Westminster,http://www.courtauld.ac.uk/,10033626383.0,E09000033,St. James's,E05000644,-0.116910436327651,51.51073437875917,530773.0845606524,180769.98380973664,04/11/2021
Museum of the Royal Philatelic Society London,Royal Philatelic Society London,41 Devonshire Place,Marylebone,City of Westminster,http://www.rpsl.org.uk/,10033629406.0,E09000033,Marylebone High Street,E05000641,-0.1500843040910654,51.521477420462304,528440.9651990973,181905.92350588547,04/11/2021
Churchill (Museum & Cabinet) War Rooms,Clive Steps,King Charles Street,,City of Westminster,http://iwm.org.uk/,10033636263.0,E09000033,St. James's,E05000644,-0.1293773601656421,51.50217907450317,529932.3447991951,179796.44403899036,04/11/2021
Havering Museum,19-21 High St,Romford,,Havering,www.haveringmuseum.org.uk/,10070706838.0,E09000016,Romford Town,E05000319,0.1795868135807665,51.57792331889929,551123.8790181811,188812.34161318216,04/11/2021
Marble Hill House,Richmond Rd,Twickenham,,Richmond upon Thames,http://www.culture24.org.uk/se000472,10070709920.0,E09000027,Twickenham Riverside,E05000531,-0.3133071075118182,51.44951494173568,517301.9682298848,173629.92575671565,04/11/2021
Museum of Richmond,Old Town Hall,Whittaker Avenue,Richmond,Richmond upon Thames,www.âmuseumofrichmond.âcom,10070710719.0,E09000027,South Richmond,E05000528,-0.3065730533405202,51.45881505194292,517745.9681091553,174674.9254699793,04/11/2021
World Rugby Museum,Twickenham Stadium,Rugby Road,Twickenham,Richmond upon Thames,http://www.rfu.com/museum,10070721329.0,E09000027,St. Margarets and North Twickenham,E05000527,-0.3407153151678361,51.45531062019565,515382.96875187,174230.9255901021,04/11/2021
Islington Museum,Â 245 St John St,Clerkenwell,,Islington,,10091003195.0,E09000019,Clerkenwell,E05000370,-0.1045269999041977,51.52648754915111,531586.9643476697,182543.92333443527,04/11/2021
Bentley Priory Museum,Mansion House Drive Stanmore,,,Harrow,www.bentleypriory.org,10091091981.0,E09000015,Stanmore Park,E05000303,-0.3330576837628539,51.62650831574604,515481.0987272122,193280.92041636136,04/11/2021
Black Cultural Archives,1 Windrush Square,,,Lambeth,www.bcaheritage.org.uk,10091118537.0,E09000022,Coldharbour,E05000420,-0.1145723141893383,51.460516379123135,531079.1244554447,175189.87528240157,04/11/2021
Redbridge Museum,Redbridge Central Library,Clements Road,lford,Redbridge,redbridgefirstworldwar.org.uk,10091799736.0,E09000026,Ilford Town,E05011246,0.0753281013182245,51.55806438964066,543962.960980725,186393.92228495312,04/11/2021
Horniman Museum and Gardens,100 London Road,Forest Hill,,Lewisham,http://www.horniman.ac.uk/,10091839078.0,E09000023,Forest Hill,E05000444,-0.060736390634653,51.44113086969214,534875.9634526732,173131.92589071288,04/11/2021
Library and Museum of Freemasonry,Freemasons' Hall,60 Great Queen Street,,Camden,http://www.freemasonry.london.museum/,10091860258.0,E09000007,Holborn and Covent Garden,E05000138,-0.1211109774970019,51.51516267968856,530468.9646492066,181254.9236810254,04/11/2021
Charles Dickens Museum,48 Doughty St,London,,Camden,https://dickensmuseum.com/,10091862283.0,E09000007,Holborn and Covent Garden,E05000138,-0.116237043572231,51.52360065483904,530782.9645658109,182201.9234248788,04/11/2021
Crossness Engines,The Old Works. Thames Water S.T.W.,Bazalgette Way,Abbey Wood,Bexley,http://www.crossness.org.uk/,10091915267.0,E09000004,Thamesmead East,E05011232,0.1340102433580169,51.50580577876915,548199.9598288541,180699.92383488367,04/11/2021
National Portrait Gallery,St MartinÃ¢ÂÂs Place,,,City of Westminster,http://www.npg.org.uk/,100023431366.0,E09000033,St. James's,E05000644,-0.12845289125683,51.50939879904716,529975.9647833531,180600.92385994364,04/11/2021
Hunterian Museum at the Royal College of Surgeons,Royal College of Surgeons,35-43 LincolnÃ¢ÂÂs Inn Fields,,City of Westminster,http://www.medicalmuseums.org/,10091945440.0,E09000033,St. James's,E05000644,-0.1158740280730575,51.515285518292416,530831.9645505925,181277.92367464828,04/11/2021
Royal College of Surgeons of England,35-43 Lincoln's Inn Fields,,,City of Westminster,https://www.rcseng.ac.uk/,10091945440.0,E09000033,St. James's,E05000644,-0.1158740280730575,51.515285518292416,530831.9645505925,181277.92367464828,04/11/2021
Kenwood House (known as the Iveagh Bequest),Hampstead Ln,Highgate,,Camden,http://www.culture24.org.uk/mw387,10091954503.0,E09000007,Highgate,E05000137,-0.1675998045215327,51.57132839392993,527086.9655693867,187418.92200642705,04/11/2021
Hall Place and Gardens,Bourne Road,Bexley,Kent,Bexley,https://www.hallplace.org.uk/,100020195288.0,E09000004,Crayford,E05011222,0.1602553990405088,51.44803112560768,550210.9592804892,174328.92556404375,04/11/2021
Geffrye Museum,136 Kingsland Road,London,,Hackney,http://www.geffrye-museum.org.uk/,100021051873.0,E09000012,Haggerston,E05009375,-0.0762440652955251,51.53155722193844,533533.9638188663,183158.92316478785,04/11/2021
Ham House,Ham House and Garden,Ham St,Richmond-upon-Thames,Richmond upon Thames,https://www.nationaltrust.org.uk/ham-house-and-garden,100022307688.0,E09000027,"Ham, Petersham and Richmond Riverside",E05000519,-0.3164578942587553,51.44367923659335,517097.96828456153,172975.925934484,04/11/2021
Orleans House Gallery,Riverside,Twickenham,,Richmond upon Thames,http://www.richmond.gov.uk/arts,100022344488.0,E09000027,Twickenham Riverside,E05000531,-0.3190722143109723,51.44733168643536,516906.968337014,173377.92582553212,04/11/2021
Bromley Museum at Bromley Historic Collections,Â High St,Bromley,,Bromley,,100022886980.0,E09000006,Bromley Town,E05000109,0.0144742489057638,51.403764999162505,540216.9620015749,169117.92697948817,04/11/2021
Bethlem Museum of the Mind,Bethlem Royal Hospital,Monks Orchard Road,,Bromley,http://museumofthemind.org.uk/,100022894353.0,E09000006,Kelsey and Eden Park,E05000120,-0.0297404902326857,51.38091958287066,537209.9628154368,166493.9276965016,04/11/2021
Dr JohnsonÃÂ¼s House,17 Gough Square,,,City and County of the City of London,http://www.drjohnsonshouse.org/,100022935908.0,E09000001,Castle Baynard,E05009297,-0.1081590654901617,51.51503545846408,531367.9644042513,181263.9236792864,04/11/2021
Walthamstow Pumphouse Museum,10 S Access Rd,Walthamstow,,Waltham Forest,http://e17pumphouse.org.uk/,100022984152.0,E09000031,Markhouse,E05000606,-0.034764429648415,51.576714013955744,536275.9630726937,188256.9217821934,04/11/2021
Vestry House Museum,Vestry Road,,,Waltham Forest,http://www.walthamforest.gov.uk/vestry-house,100022986430.0,E09000031,Hoe Street,E05000601,-0.0127393559385284,51.58401371573883,537779.9626621486,189109.9215461703,04/11/2021
Sutton House,2 & 4 Homerton High St,,,Hackney,www.ânationaltrust.âorg.âuk/âsutton-âhouse,100023022522.0,E09000012,Homerton,E05009376,-0.0504042601554399,51.54848590740279,535275.9633436317,185088.9226410914,04/11/2021
The Garden Museum,5 Lambeth Palace Rd,Lambeth,,Lambeth,www.âgardenmuseum.âorg.âuk,100023225605.0,E09000022,Bishop's,E05000416,-0.1201953581238928,51.49504922782068,530589.9646163671,179019.92428933864,04/11/2021
RangerÃÂ¼s House,Chesterfield Walk,Lewisham,,Greenwich,http://www.english-heritage.org.uk/visit/places/rangers-house-the-wernher-collection/,100023227777.0,E09000011,Greenwich West,E05000222,-0.0016106929260604,51.47341137006207,538886.9623608608,176831.924884153,04/11/2021
Fan Museum,12 Crooms Hill,,,Greenwich,https://www.thefanmuseum.org.uk/,100023227937.0,E09000011,Greenwich West,E05000222,-0.0082057105737008,51.47898036199037,538412.1024446647,177438.7146972238,04/11/2021
The Old Royal Naval College,King William Walk,Greenwich,,Greenwich,www.âornc.âorg,100023228558.0,E09000011,Greenwich West,E05000222,-0.0063974126454343,51.4829679205009,538525.5824577431,177885.5445925399,04/11/2021
Mall Galleries,The Mall,17 Carlton House Terrace,,City of Westminster,http://www.mallgalleries.org.uk/,100023349548.0,E09000033,St. James's,E05000644,-0.1301482499558627,51.50671003411815,529865.9648131775,180298.923942891,04/11/2021
Royal College of Music Museum of Instruments,Prince Consort Rd,Kensington,,City of Westminster,www.ârcm.âac.âuk/âvisit/âmuseum/â,100023378050.0,E09000033,Knightsbridge and Belgravia,E05000637,-0.1768889543319312,51.4992805037668,526642.9656896363,179390.92418974685,04/11/2021
The London Museum of Water and Steam,Green Dragon Lane,Brentford,,Hounslow,www.âwaterandsteam.âorg.âuk,100023407522.0,E09000018,Brentford,E05000347,-0.2905175716664339,51.489055494954336,518782.8677923639,178063.62450221286,04/11/2021
"Hillingdon Local Studies, Archives and Museum",Central Library,14-16 High Street,Uxbridge,Hillingdon,https://www.hillingdon.gov.uk/history,100023421562.0,E09000017,Uxbridge South,E05000341,-0.4782767141894988,51.54518515249601,505617.9714063839,184017.9229329521,04/11/2021
National Gallery,Trafalgar Square,,,City of Westminster,http://www.nationalgallery.org.uk/,100023432659.0,E09000033,St. James's,E05000644,-0.1276581949477372,51.50909834878704,530031.9647680513,180568.92386848383,04/11/2021
Benjamin Franklin House,36 Craven Street,,,City of Westminster,http://www.benjaminfranklinhouse.org/,100023432708.0,E09000033,St. James's,E05000644,-0.1248934538037169,51.50764232446757,530227.9647143156,180411.92391104344,04/11/2021
British Dental Association Museum,64 Wimpole St,Marylebone,,City of Westminster,https://bda.org/museum,100023465311.0,E09000033,Marylebone High Street,E05000641,-0.1486163749991091,51.51857660152436,528550.9651694552,181585.92359387703,04/11/2021
British Architectural Library (Library and Photographs Collection),66 Portland Pl,Marylebone,,City of Westminster,https://www.architecture.com/about/riba-library-and-collections,100023466307.0,E09000033,Marylebone High Street,E05000641,-0.1448435900362467,51.52132271764298,528804.9651006795,181897.92350849224,04/11/2021
Handel and Hendrix in London,23 and 25 Brook Street,Mayfair,,City of Westminster,https://handelhendrix.org/,100023474817.0,E09000033,West End,E05000649,-0.1459038432059894,51.512967278671226,528754.965114292,180966.92376246763,04/11/2021
HogarthÃ¢ÂÂs House,Greater London,,,Hounslow,http://www.hounslow.info/arts-culture/historic-houses-museums/hogarth-house/#,100023518941.0,E09000018,Chiswick Homefields,E05000348,-0.2549873889554955,51.48701875327443,521254.887137769,177895.30460051697,04/11/2021
Bruce Castle Museum,Bruce Castle Museum,Lordship Lane,,Haringey,http://www.haringey.gov.uk/leisure/brucecastlemuseum,100023552396.0,E09000014,White Hart Lane,E05000283,-0.0754409033104723,51.59915010215165,533391.9638561665,190676.92112226985,04/11/2021
Down House,Down House,Luxted Road,Â Downe,Bromley,www.english-heritage.org.uk/darwin/,100023633852.0,E09000006,Darwin,E05000117,0.0534664218478761,51.331433604935285,543153.961201157,161149.92914692525,04/11/2021
Museum of London,150 London Wall,,,City and County of the City of London,http://www.museumoflondon.org.uk/london-wall/#,200000069411.0,E09000001,Aldersgate,E05009288,-0.0960666931222727,51.51779839765451,532198.9641790999,181592.92359148545,04/11/2021
Barbican Art Gallery,Level 3,Barbican Centre,Silk Street,City and County of the City of London,http://www.barbican.org.uk/artgallery,200000072620.0,E09000001,Cripplegate,E05009302,-0.0941025868567625,51.51996070969431,532328.9641439863,181836.9235256182,04/11/2021
British Red Cross Museum and Archives,UK Office 44 Moorfields,,,City and County of the City of London,http://www.redcross.org.uk/museumandarchives,200000075168.0,E09000001,Coleman Street,E05009299,-0.0886505040685439,51.5190921022144,532709.7239894785,181750.20351792843,04/11/2021
Guildhall Art Gallery and London's Roman Amphitheatre,Guildhall Art Gallery Cultural and Visitor Development Town ClerkÃ¢ÂÂs Department Guildhall Yard,,,City and County of the City of London,http://www.guildhallartgallery.cityoflondon.gov.uk/,200000075197.0,E09000001,Bassishaw,E05009290,-0.0916340234565106,51.51556807522475,532512.9640940843,181352.92365715743,04/11/2021
Headstone Manor & Museum (Harrow),Headstone Manor & Museum,Pinner View,Harrow,Harrow,http://www.harrow.gov.uk/museum,200000320113.0,E09000015,Headstone North,E05000292,-0.3526130804318212,51.59406081618872,514208.9690684588,189641.92140181136,04/11/2021
Hayward Gallery,Southbank Centre,Belvedere Road,,Lambeth,http://ticketing.southbankcentre.co.uk/venues/hayward-gallery#,200000480099.0,E09000022,Bishop's,E05000416,-0.1154448154184182,51.50613299043132,530887.9645341901,180260.9239520956,04/11/2021
Florence Nightingale Museum,St. Thomas Hospital,2 Lambeth Palace Road,,Lambeth,http://www.florence-nightingale.co.uk/,200000488107.0,E09000022,Bishop's,E05000416,-0.1170069416556017,51.50005200097535,530796.9645598343,179581.92413936724,04/11/2021
The View (Epping Forest Collection),6 Rangers Road,,Chingford,Waltham Forest,www.cityoflondon.gov.uk/things-to-do/green-spaces/epping-forest/Pages/default.aspx,200001425882.0,E09000031,Chingford Green,E05000593,0.0175245221768769,51.63439473101763,539721.9621349555,194769.92001058065,04/11/2021
William Morris Gallery and Brangwyn Gift,Lloyd Park House,531 Forest Rd,Walthamstow,Waltham Forest,http://wmgallery.org.uk/,200001431546.0,E09000031,William Morris,E05000608,-0.02037660899278,51.5913007088925,537228.9628105869,189905.9213307486,04/11/2021
Clipper Ship Cutty Sark,King William Walk,Greenwich,,Greenwich,http://www.rmg.co.uk/cuttysark,200002800647.0,E09000011,Greenwich West,E05000222,-0.0094926914437689,51.48281205018306,538311.142513546,177862.3646063864,04/11/2021
London Fire Brigade Museum,Winchester House,94a Southwark Bridge Rd,,Southwark,http://www.culture24.org.uk/mw921,200003353307.0,E09000028,Borough & Bankside,E05011095,-0.0981244724449347,51.50196854517723,532101.9642053051,179828.92407027475,04/11/2021
HMS Belfast,Uxbridge,Middlesex,,Southwark,http://iwm.org.uk/,200003356908.0,E09000028,London Bridge & West Bermondsey,E05011104,-0.0814631259463339,51.50659144906199,533244.8138714326,180373.17392100656,04/11/2021
Imperial War Museum,Lambeth Rd,,,Southwark,http://london.iwm.org.uk/,200003372421.0,E09000028,St. George's,E05011114,-0.1083277904858528,51.496009484277145,531410.9643930707,179147.9242546892,04/11/2021
Old Operating Theatre and Herb Garret,9A St ThomasÃ¢ÂÂ Street,,,Southwark,http://www.oldoperatingtheatre.com/,200003376919.0,E09000028,London Bridge & West Bermondsey,E05011104,-0.0884296152836078,51.50501236312088,532765.9640262275,180184.92397228637,04/11/2021
Brunel Museum,Brunel Engine House,Railway Avenue,Rotherhithe,Southwark,www.brunel-museum.org.uk/,200003410582.0,E09000028,Rotherhithe,E05011112,-0.0529398284004501,51.50159554671664,535238.9633523446,179869.92406081513,04/11/2021
Dulwich Picture Gallery,6 Gallery Road,Dulwich Village,,Southwark,http://www.dulwichpicturegallery.org.uk/,200003435462.0,E09000028,Dulwich Village,E05011100,-0.0864203627896006,51.445977705689295,533076.9639416866,173623.9257551703,04/11/2021
Osterley Park House,Jersey Road,Isleworth,,Hounslow,https://www.nationaltrust.org.uk/osterley-park-and-house?p=1356312744250,200003968705.0,E09000018,Osterley and Spring Grove,E05000363,-0.3517417311233995,51.48949015572655,514531.3689475135,178014.52453660412,04/11/2021
Gunnersbury Park Museum,Gunnersbury Park,Popes Ln,,Hounslow,www.hounslow.info Ã¢ÂÂº Arts & Culture Ã¢ÂÂº Historic Houses & Museums,200003970213.0,E09000018,Brentford,E05000347,-0.2863214479833223,51.49954348753787,519046.86772029125,179236.7242170201,04/11/2021
Migration Museum and the London Fire Brigade Museum,26 Lambeth High St,,,,https://www.london-fire.gov.uk/museum/   https://www.migrationmuseum.org/,,,,,-0.1203999135478098,51.49308936141581,530581.3642159238,178801.62112487975,04/11/2021
